{"type":"Topology","objects":{"regiones":{"type":"GeometryCollection","geometries":[{"type":"Polygon","arcs":[[0,1,2,3,4]],"properties":{"codigo":"01","nombre":"Amazonas"}},{"type":"Polygon","arcs":[[5,6,7,8]],"properties":{"codigo":"02","nombre":"Ancash"}},{"type":"Polygon","arcs":[[9,10,11]],"properties":{"codigo":"03","nombre":"Apurimac"}},{"type":"MultiPolygon","arcs":[[[12,13,-11,14,15,16,17]],[[18]]],"properties":{"codigo":"04","nombre":"Arequipa"}},{"type":"MultiPolygon","arcs":[[[19,-15,-10,20,21,22]],[[23]]],"properties":{"codigo":"05","nombre":"Ayacucho"}},{"type":"Polygon","arcs":[[-5,24,25,26,27]],"properties":{"codigo":"06","nombre":"Cajamarca"}},{"type":"Polygon","arcs":[[28,29]],"properties":{"codigo":"07","nombre":"Callao"}},{"type":"MultiPolygon","arcs":[[[30,31,32,33,-21,-12,-14]],[[34]]],"properties":{"codigo":"08","nombre":"Cusco"}},{"type":"Polygon","arcs":[[35,36,37,-23]],"properties":{"codigo":"09","nombre":"Huancavelica"}},{"type":"Polygon","arcs":[[38,39,40,41,42,43,-9]],"properties":{"codigo":"10","nombre":"Huanuco"}},{"type":"Polygon","arcs":[[-16,-20,-38,44,45]],"properties":{"codigo":"11","nombre":"Ica"}},{"type":"Polygon","arcs":[[-22,-34,46,47,48,49,50,-36]],"properties":{"codigo":"12","nombre":"Junin"}},{"type":"Polygon","arcs":[[51,52,-6,-44,53,-1,-28]],"properties":{"codigo":"13","nombre":"La Libertad"}},{"type":"Polygon","arcs":[[-27,54,55,-52]],"properties":{"codigo":"14","nombre":"Lambayeque"}},{"type":"MultiPolygon","arcs":[[[-39,-8,56,-29,57,-45,-37,-51,58]],[[59]],[[60]],[[61]]],"properties":{"codigo":"15","nombre":"Lima"}},{"type":"Polygon","arcs":[[-3,62,-42,63,64]],"properties":{"codigo":"16","nombre":"Loreto"}},{"type":"Polygon","arcs":[[65,66,67,-32]],"properties":{"codigo":"17","nombre":"Madre de Dios"}},{"type":"Polygon","arcs":[[68,69,70,-18]],"properties":{"codigo":"18","nombre":"Moquegua"}},{"type":"Polygon","arcs":[[-50,71,-48,72,-40,-59]],"properties":{"codigo":"19","nombre":"Pasco"}},{"type":"MultiPolygon","arcs":[[[-26,73,74,75,-55]],[[76]]],"properties":{"codigo":"20","nombre":"Piura"}},{"type":"MultiPolygon","arcs":[[[-66,-31,-13,-71,77,78]],[[79]],[[80]],[[81]],[[82]],[[83]],[[84]],[[85]],[[86]]],"properties":{"codigo":"21","nombre":"Puno"}},{"type":"Polygon","arcs":[[-2,-54,-43,-63]],"properties":{"codigo":"22","nombre":"San Martin"}},{"type":"Polygon","arcs":[[-78,-70,87]],"properties":{"codigo":"23","nombre":"Tacna"}},{"type":"Polygon","arcs":[[-75,88]],"properties":{"codigo":"24","nombre":"Tumbes"}},{"type":"Polygon","arcs":[[-47,-33,-68,89,-64,-41,-73]],"properties":{"codigo":"25","nombre":"Ucayali"}}]}},"arcs":[[[26261,62146],[126,41],[171,-74],[174,3],[72,-55],[253,33],[145,96],[292,-79],[78,110],[248,-51],[179,135],[161,-126]],[[28160,62179],[161,88],[-15,62],[52,46],[142,40],[68,71],[-127,81],[-146,289],[-181,222],[259,89],[-42,127],[-86,84],[68,185],[-55,230],[48,117],[193,-63],[110,-97],[107,-3],[203,95],[90,165],[194,93],[113,2],[224,-121],[119,-20],[195,-212],[72,16],[109,-31],[83,41],[278,-62],[149,17],[141,-107],[148,-36],[101,-110],[69,111],[132,49],[-184,188],[-22,92],[-126,44],[-94,110],[-18,85],[347,-1],[106,183],[202,47],[155,209],[24,190],[50,109],[158,75],[64,159],[194,99],[-19,119],[-55,62],[-34,187],[1,44],[90,20],[107,2],[45,-48],[90,-8],[26,-83],[156,-156],[99,33],[125,-35],[215,11],[152,155],[113,155],[-3,111],[-211,175],[-90,28],[-26,102],[-183,71],[-172,206],[119,70],[-160,204],[-129,-23],[-103,62],[-211,-21],[-58,43],[-123,10],[-229,111],[-110,-11],[-103,230],[-166,-43],[-113,219],[-181,42],[-113,-162],[-354,338],[-80,-56],[-15,-100],[-164,-21],[-64,-123],[-125,-46],[-67,58],[-98,11],[-106,124],[-143,-49],[-95,31],[14,142],[-336,23],[-257,147],[-3,52],[96,52],[63,108],[-90,96],[-17,140],[-139,79],[41,99],[-29,55],[-105,51],[-249,-21],[-271,104],[-76,201],[77,96],[-93,94],[59,27],[44,101],[-124,104],[0,115],[163,168],[14,117],[108,84],[20,71],[-232,383],[70,137],[-117,120],[9,75],[172,100],[-149,133],[181,157],[253,-52],[132,29]],[[28656,70662],[-55,158],[162,230],[-13,241],[-119,229],[-84,78],[-161,61],[-75,91],[249,114],[103,130],[-104,89],[-92,56],[-200,42],[-156,97],[-73,98],[-132,11],[-81,50],[-129,-28],[-37,51],[83,139],[-16,90],[-93,15],[8,29],[523,446],[-67,158],[52,65],[-263,324],[14,93],[-58,46],[30,172],[48,43],[-43,136],[180,233],[320,159],[121,128],[170,35],[178,159],[94,256],[58,44],[-56,90],[85,64],[-52,152],[112,46],[6,74],[233,12],[52,47],[106,17],[79,126],[129,353],[-165,784],[114,307],[44,217],[135,273],[82,419],[1,365],[-49,133],[-196,242],[59,93],[-161,73],[-215,205],[-150,44],[-187,200],[68,150],[135,99],[83,149],[-46,118],[11,348],[-181,17],[-187,258],[-393,162],[44,87],[-33,63],[-240,178],[-213,292],[-43,258],[1,1036],[-103,405],[40,62],[-68,93],[53,79],[-23,111],[-210,293],[69,80]],[[27768,83904],[-284,-65],[35,-55],[-794,-313],[-75,-131],[-98,-33],[-64,-120],[-92,-12],[-20,-76],[-190,-134],[-29,-113],[-185,-59],[-49,-82],[-97,-21],[-80,-87],[-204,-54],[-131,-234],[-269,-235],[36,-35],[-117,-10],[-147,-121],[-200,-56],[142,-269],[142,17],[37,-25],[70,-348],[-304,-122],[-125,12],[-44,-52],[-89,-22],[-111,56],[41,39],[-83,251],[-60,43],[21,151],[-36,43],[-193,-15],[-142,48],[-110,-20],[-345,95],[16,-51],[-94,-65],[117,-128],[-31,-116],[-109,-115],[30,-136],[-89,-108],[-19,-137],[-175,-114],[40,-74],[-68,-77],[15,-87],[-55,-14],[17,-98],[90,-87],[-115,-56],[60,-147],[-55,-68],[-123,20],[-60,-39],[49,-134],[-36,-35],[152,-61],[-107,-164],[58,-35],[-5,-58],[-210,-201],[-236,-45],[46,-52],[-127,-113],[-13,-140],[-71,-57],[89,-68],[-105,-151],[-281,-19],[-142,-141],[-2,-62],[-185,-103],[-12,-283],[240,-90],[-28,-67],[-212,-149],[-107,-184],[54,-196],[-23,-135],[-179,-75],[-71,-92],[83,-174],[-98,-51],[-58,-147],[-176,-65],[-95,-157],[146,-439],[65,-18],[179,41],[20,-53],[-21,-58],[-137,-34],[-109,-144],[-11,-202],[-92,-44],[-115,-134],[43,-156],[-49,-44],[56,-80],[-195,-56],[-201,-157]],[[20688,74961],[108,-88],[215,-87],[105,53],[109,-56],[-45,-141],[61,-17],[33,-71],[-66,-37],[-39,-162],[132,-27],[-22,-96],[82,-58],[-168,-188],[79,-186],[-94,-119],[-10,-269],[-141,-227],[-121,-106],[96,-60],[116,5],[86,-304],[-135,-181],[-178,-26],[-31,-88],[-90,-29],[-121,-345],[62,-278],[74,-137],[75,-34],[-7,-149],[242,-44],[101,-161],[121,-14],[334,1],[67,-43],[108,-106],[33,-107],[141,-69],[134,-157],[150,-96],[106,19],[24,39],[89,-17],[125,30],[68,51],[24,-45],[-82,-103],[39,-51],[-263,-107],[-154,-107],[-287,-90],[-123,-86],[64,-105],[-33,-117],[-223,-68],[-9,-71],[-189,-177],[21,-75],[-112,-71],[-41,-91],[-112,-31],[-95,-167],[-269,-115],[11,-57],[255,-95],[-26,-64],[-219,-37],[-73,-42],[-6,-115],[-64,-73],[-92,-242],[104,-62],[63,-183],[-41,-68],[81,-77],[112,-100],[91,-199],[148,-77],[105,-143],[147,-148],[6,-163],[59,-54],[146,-88],[176,7],[25,34],[267,-11],[74,1],[47,-69],[76,-19],[1,-72],[156,-55],[23,-109],[72,-12],[15,-50],[355,-243],[26,-124],[108,-41],[23,-53],[154,-13],[81,-46],[0,-143],[24,-72],[58,-15],[12,-68],[82,-26],[97,-110],[11,-172],[52,-34],[79,-10],[127,-92],[79,14],[106,-90],[17,-58],[59,46],[195,-58],[176,-157],[25,-89],[109,-64],[113,8],[22,-67],[84,-36],[21,-97],[75,16],[87,-43],[11,-67],[127,-88],[-14,-119],[43,-15],[-36,-38],[-7,-26],[163,-78],[-35,-59],[37,-73],[99,-119],[-15,-117],[90,-67],[114,11],[38,-25],[-20,-50],[166,-37],[88,-76],[82,-290],[39,-128],[71,-21],[-37,-27],[41,-18],[-26,-109],[61,-57],[-36,-53],[57,-16],[-9,-58],[-106,-59],[-4,-39],[117,-7],[94,-55],[-35,-80],[43,-31],[-35,-66],[54,-32],[-15,-56],[-99,-132],[109,-43],[-2,-157]],[[31642,53629],[-137,-15],[-246,141],[-36,43],[-228,87],[-47,228],[-190,54],[-66,84],[-75,259],[-8,4],[-86,68],[-7,122],[-143,40],[25,44],[-98,79],[-30,114],[-114,50],[-172,35],[-31,131],[-269,31],[-76,40],[16,96],[129,99],[-146,143],[-231,68],[-28,42],[51,64],[-120,29],[-59,74],[-97,56],[142,150],[-198,72],[-28,92],[-560,-130],[-197,18],[-62,-39],[-273,-10],[-194,63],[-310,-42],[-143,106],[-123,-42],[-96,9],[-18,-66],[-227,-455],[-51,-216],[-75,-24],[-292,-54],[-283,-62],[-102,-86],[-66,-97],[-220,-81],[-21,-42],[-115,-14],[-102,-78],[-170,-83],[-35,-41],[98,-109],[-111,-120],[-102,-39],[-30,-327],[-136,-193],[-7,-89],[-95,-60],[-24,-65],[-123,-36],[-115,-98],[-113,-170],[15,-46],[104,-45],[65,-140],[-66,-146],[-265,-145],[-93,-31],[-200,12],[-114,-33],[-72,20],[-116,-46],[-183,4],[-32,-52],[-131,15],[-192,-128],[-253,-66],[-214,-131],[-385,-101],[-244,-10],[-264,-120],[-108,-96],[-180,-355],[91,-171],[-109,-206],[4,-87],[-118,-67],[-196,-88],[-120,10]],[[21170,51232],[6,-77],[-51,-42],[-61,26],[3,-53],[197,-52],[82,-63],[-95,-65],[-32,-102],[119,-179],[75,43],[-23,-41],[42,32],[-6,-32],[138,13],[144,-73],[115,-145],[-37,-37],[46,10],[18,-134],[-104,-134],[-307,57],[41,-55],[-37,-28],[56,5],[16,-58],[88,-53],[102,5],[-53,-47],[65,-12],[-7,-43],[69,-18],[20,-65],[95,-34],[-29,171],[-76,54],[20,57],[95,37],[337,-19],[165,-119],[28,-92],[-61,-184],[-123,-30],[-74,-72],[-60,13],[-4,-33],[209,-67],[5,-137],[149,-54],[-15,-63],[72,25],[-19,60],[108,9],[33,-61],[109,2],[41,-81],[15,27],[82,-24],[-19,-44],[2,-60],[144,-19],[-27,-33],[-123,-10],[-41,-67],[-1,-36],[54,-8],[15,-139],[66,-3],[-2,-50],[81,12],[-11,-59],[126,36],[94,-89],[-7,-56],[-86,-12],[-56,-37],[19,-38],[-64,-19],[79,-14],[-16,-116],[96,-121],[-54,-54],[197,-153],[-36,-38],[45,-84],[-56,-27],[87,-130],[-50,-96],[21,-20],[50,40],[120,-49],[60,-119],[134,-65],[-30,-47],[40,-41],[79,-6],[8,-62],[59,-7],[46,-89],[-21,-74],[165,-92],[14,-63],[212,-83],[159,-138],[-7,-144],[-85,-69],[28,-108],[-62,-18],[-13,-61],[152,-212],[-55,-18],[52,-66],[-37,-31],[32,-61],[-59,-10],[38,-35],[-49,-19],[208,-85],[-3,-59],[69,-22],[28,-72],[0,-138],[51,0],[-14,-38],[124,-93],[0,-140],[78,-92],[-16,-58],[-111,-20],[-24,-47],[91,-31],[78,-175],[257,-157],[65,-3],[75,-106],[92,-28],[39,-111],[74,-48],[-37,-65],[86,-34],[-48,-157],[239,-145],[-37,-25],[59,-68],[-9,-135],[352,-160],[78,-125],[-93,-31],[-15,-44],[268,-154],[44,-106],[91,-67],[-18,-119],[207,-88],[246,-193],[58,-108],[-62,-30],[177,-231]],[[27155,42261],[252,196],[115,45],[316,-95],[68,8],[48,64],[107,2],[6,306],[-222,209],[88,111],[182,96],[-26,58],[62,-7],[18,85],[62,42],[-52,430],[32,34],[423,-1],[160,-28],[215,-95],[154,122],[90,-27],[170,-196],[-5,-110],[-278,-159],[-84,20],[-140,-53],[-22,-48],[-165,-37],[-12,-108],[-190,-207],[14,-66],[-79,4],[-10,-49],[-127,-48],[-53,-63],[-9,-142],[75,-55],[69,86],[138,-41],[10,66],[117,47],[187,-9],[149,60],[210,153],[176,-33],[22,-51],[-123,-31],[5,-127],[-186,-91],[-56,-108],[56,-110],[147,-61],[2,65],[114,66],[222,35],[21,-169],[-68,-39],[-3,-93],[-60,-37],[130,-93],[-3,-173],[90,-82],[-122,-78],[-99,-343],[531,281],[123,5],[105,-66],[71,6],[393,117],[164,-35],[234,122],[-143,91],[12,73],[175,209],[101,6],[161,174],[17,-8],[50,65],[141,44],[82,113],[151,61],[159,-25],[28,56],[119,28],[208,-4],[176,-52],[98,18],[18,55],[170,186],[-9,85],[-60,52],[11,101],[195,73],[93,135],[206,118],[9,70],[163,106],[5,63],[69,18],[73,107],[73,20],[84,-29],[213,67],[123,108],[11,116],[43,25],[32,-52],[258,-76],[233,147],[235,23]],[[34887,44105],[9,29],[2,171],[-89,71],[33,216],[-28,356],[91,25],[189,-7],[68,122],[140,-41],[82,82],[283,12],[-37,184],[-25,155],[-70,63],[-12,118],[93,160],[-222,161],[-1,107],[-244,257],[29,19],[-156,202],[-91,129],[-8,164],[-81,33],[-43,109],[-134,78],[-87,147],[-128,-60],[-81,10],[-72,-70],[5,-86],[86,-96],[-34,-13],[-395,305],[-186,277],[2,116],[142,106],[109,-7],[158,59],[56,60],[-16,72],[120,87],[157,17],[16,71],[-13,28],[136,96],[-9,179],[-116,133],[190,226],[-54,110],[96,128],[48,71],[65,5],[71,52],[55,143],[217,138],[-31,36],[17,53],[105,15],[93,146],[47,-9],[169,-344],[257,-90],[136,-133],[126,128],[71,75],[-38,182],[42,65],[0,63],[112,93],[-68,259],[-80,84],[-103,67],[-88,132],[-166,115],[-231,47],[-100,27],[-296,44],[-225,84],[-158,128],[-97,28],[-119,-24],[-167,79],[-113,-12],[-173,164],[-243,132],[-17,46],[-239,49],[-206,106],[-86,-5],[-56,16],[60,47],[-25,64],[-142,37],[-75,89],[26,45],[-109,101],[-124,12],[-104,113],[21,104],[-52,63],[14,67],[-165,102],[-85,182],[-130,62],[-33,145],[-166,90],[6,79],[-35,164],[-78,95],[9,92],[-211,32],[-59,53],[48,236],[-60,104],[-116,81],[-35,61],[35,61],[-51,18]],[[64033,26932],[19,-71],[-112,-101],[24,-80],[-125,-63],[-71,62],[-119,-14],[-404,116],[-76,-54],[-85,3],[-8,66],[-111,50],[-448,-55],[-51,49],[-127,-13],[-66,43],[-82,0],[-285,-3],[-100,170],[-134,92],[-29,-10],[-88,-1],[-29,60],[-116,55],[-210,4],[-32,138],[-101,-7],[-87,61],[-73,-20],[-25,46],[-113,13],[-129,117],[-123,34],[-45,62],[-187,-1],[-88,90],[-233,-15],[7,43],[-76,17],[43,80],[-72,170],[92,92],[-17,63],[-87,46],[-117,22],[-128,-24],[-5,-51],[-158,-52],[-115,-150],[-39,-113],[-88,-34],[-19,-117],[157,-226],[-4,-20],[-106,-17],[-92,-67],[27,-93],[-78,-213],[-67,-61],[155,-198],[-13,-63],[-76,-49],[30,-87],[93,-77],[46,-115],[107,-287],[-14,-92],[76,-162],[-80,-52],[82,-118],[307,-83],[224,-97],[-11,-69],[52,-4],[75,-51],[-12,-73],[104,-4],[222,-139],[34,-41],[-135,-2],[-7,-47],[-302,-46],[-71,8],[-104,-51],[43,-155],[143,-160],[216,-156],[19,-64],[6,-134],[109,-160],[143,-50],[57,-79],[51,-67],[42,-149],[134,-90],[48,-119],[-15,-87],[-33,-89],[81,-112],[9,-38],[26,-73],[194,-112],[68,-188],[196,-259],[61,-21],[10,-69],[163,-107],[29,-162],[60,-58],[-40,-223],[-85,-72],[-59,-192],[-142,-108],[-3,-129],[-45,-48],[-175,-34],[88,-221],[151,-46],[-25,-86],[154,-59],[20,-85],[77,-36],[16,-108],[109,-59],[-42,-118],[-168,-99],[172,-295],[-19,-116],[-70,-75],[-308,-38],[-106,-82],[34,-66],[-45,-46],[63,-25],[-23,-40],[71,-65],[-19,-199],[124,-140],[165,1],[111,-132],[120,-18],[119,-76],[156,15],[95,203],[285,172],[93,31],[112,270],[148,98],[57,90],[48,-9],[59,-113],[177,-73],[156,5],[166,-96],[189,132],[277,-1],[80,46],[220,-23],[95,110],[199,62],[234,-41],[19,-53],[76,-7],[54,38],[-43,87],[95,105],[276,-82],[165,53],[-4,180],[199,-42],[149,-173],[189,58],[152,-169],[155,-68],[141,54],[58,-67],[344,-58],[16,-97],[78,-24],[64,-161]],[[66913,19610],[3,0],[102,125],[42,193],[304,281],[152,-79],[230,110],[125,3],[8,-179],[211,-13],[56,-52],[306,107],[328,-41],[86,-74],[-23,-69],[61,-60],[74,32],[50,109],[142,52],[279,62],[112,-24],[55,40],[256,15]],[[69872,20148],[63,103],[16,200],[-325,295],[121,123],[341,176],[31,84],[304,-12],[287,121],[63,141],[131,44],[168,-70],[235,92],[-39,71],[358,43],[78,297],[116,-4],[68,83],[73,16],[11,60],[146,38],[7,49],[125,71],[-2,86],[74,64],[246,45],[113,54],[239,202],[70,7],[-147,186],[267,174],[34,87],[-58,53],[42,39],[4,2],[-26,141],[-48,33],[38,168],[94,104],[-71,336],[36,165],[-175,154],[-27,96],[-79,20],[-136,293],[-88,58],[-119,206],[-102,23],[-144,173],[-185,12],[-134,94],[-202,35],[26,42],[-16,43],[-111,44],[3,57],[-49,-29],[-85,59],[-228,-43],[-60,-74],[-114,-27],[-21,56],[-313,91],[-116,87],[-262,36],[22,95],[-2,46],[-170,149],[-235,33],[-115,66],[-182,-21],[-46,68],[-224,69],[-102,-30],[-94,88],[-118,25],[-89,-60],[-151,1],[-51,84],[-106,5],[-105,58],[-81,-37],[-61,72],[-89,84],[-128,-47],[-292,114],[-56,59],[-98,-6],[-30,40],[-140,33],[-179,160],[-98,-50],[-68,13],[-29,41],[38,108],[-43,36],[-142,-26],[-102,28],[-72,-31],[-164,46],[-214,15],[-20,90],[-74,63],[-212,27],[-411,-29],[-237,-190],[-77,-20],[-87,38],[-29,34],[-98,8],[-129,-142],[-307,-60],[-90,80],[-121,-30],[-142,114],[-52,-30],[16,-58],[-91,-45],[-58,-49],[-64,5],[-83,57],[18,48],[-54,38],[31,47],[-142,27],[-56,-40]],[[82902,12955],[-171,41],[76,120],[-54,22],[-49,126],[-162,178],[-158,-23],[-56,28],[-19,156],[38,47],[-124,98],[-107,182],[-177,137],[71,23],[84,134],[140,48],[39,108],[-142,171],[-1,232],[-167,141],[-341,109],[-136,129],[-59,56],[0,116],[-89,74],[82,55],[-82,105],[25,59],[156,93],[15,90],[-97,77],[-167,53],[-94,146]],[[81176,16086],[-58,-84],[-230,-97],[25,-72],[-103,-35],[-146,25],[-128,143],[-213,-74],[-183,65],[-35,35],[25,185],[166,178],[-124,191],[16,164],[-129,86],[-111,23],[-59,141],[73,63],[76,1],[86,86],[100,87],[-135,159],[-64,19],[125,107],[158,65],[45,88],[-145,67],[-31,68],[-245,43],[-84,100],[2,107],[-66,12],[-83,-112],[-140,68],[-172,-33],[38,-84],[-406,-227],[-101,16],[-39,95],[-188,37],[-54,68],[-88,1],[-199,191],[-162,63],[-32,116],[-70,24],[29,32],[-129,36],[-35,86],[-138,-24],[-328,47],[-29,-158],[51,-124],[151,-66],[-10,-108],[-217,-113],[-465,98],[-132,-366],[-225,-94],[-200,75],[-159,123],[-66,109],[-326,5],[-223,49],[-248,-13],[-109,70],[-120,12],[-110,-59],[-175,18],[-92,162],[208,56],[103,66],[346,72],[20,81],[-53,69],[191,231],[-309,149],[-62,89],[-263,-56],[-8,97],[-254,28],[-30,56],[66,103],[-111,101],[-56,190],[-140,64],[-207,-11],[-70,36],[-30,155],[-207,131],[103,117],[-49,40],[181,79],[-350,171],[-20,66],[-104,72],[-184,-70],[-250,-312],[23,-108],[-50,-89],[76,-116],[-23,-102],[52,-77],[-48,-97],[61,-14],[60,-87],[-119,-55],[-50,-263],[-236,20],[-108,147],[-323,155],[-59,88],[55,125],[-111,65],[-82,-4],[-28,-44],[-86,42],[-148,2],[-180,-137],[-66,18],[-166,-68],[-87,48],[-495,-165],[-719,37],[-89,28],[-14,85],[-101,42],[-18,47],[-198,41],[-75,-24],[5,134],[-140,109],[30,66],[-47,38],[13,56],[121,43],[90,161],[-92,79]],[[66913,19610],[-202,-9],[-102,-58],[-187,11],[-91,67],[-81,-4],[-382,-260],[-103,14],[-83,-62],[-7,-134],[-82,-88],[-137,-243],[353,-306],[32,-143],[-160,-105],[-40,-274],[30,-67],[-160,-152],[22,-218],[-112,-10],[-67,6],[-22,-47],[-116,-23],[-307,-231],[-86,6],[-40,-199],[-117,-97],[-62,-83],[-59,-10],[-48,-138],[-150,-126],[-19,-3],[-255,70],[-117,-23],[-191,65],[-308,-48],[57,-127],[-96,-88],[-31,-137],[80,-115],[70,-68],[-170,2],[-316,-69],[-234,97],[-199,-64],[-203,127],[-106,-18],[26,87],[-110,41],[-292,-130],[-407,-69],[-207,-87],[-302,24],[-129,-79],[-102,-16],[-233,25],[-277,-113],[-559,284],[-161,212],[24,42],[-133,-6],[-101,84],[-467,2],[-149,-73],[104,-232],[-49,-51],[58,-60],[-31,-56],[42,-85],[-65,-72],[-95,1],[-42,-56],[-147,-38],[-219,-148],[-95,-167],[-133,-103],[-324,-145],[-74,-221],[-345,-162],[-168,58],[65,364],[72,71],[-94,129],[46,75],[237,59],[48,194],[-219,290],[-57,-9],[-130,73],[-207,-114],[-141,-19],[-43,-60],[-103,-15],[-20,-95],[43,-17],[-119,-177],[-238,-54],[-375,58],[-195,34],[-132,-23],[-172,20],[-53,69],[73,58],[-129,70],[-84,248],[160,186],[-197,35],[-96,93],[-75,-19],[-36,39],[-141,4],[-277,166],[-15,34],[131,94],[-12,67],[93,77],[-102,168],[86,76],[-23,53],[-53,93],[-148,62],[-188,1],[-79,-39],[-392,84],[-86,64],[-314,49],[-419,-48],[-182,134],[-184,-82],[-213,38],[-82,-38],[-214,12],[-38,67],[-143,8],[-180,137]],[[51801,17763],[-401,-217],[-332,-87],[-175,0],[-483,-275],[-57,-150],[-140,-122],[-36,-248],[-282,-169],[-100,-114],[-15,-171],[-213,-261],[-220,-69]],[[49347,15880],[227,-85],[298,-8],[173,-55],[89,-112],[502,-118],[362,-147],[141,-103],[-57,-83],[77,44],[125,-18],[624,-177],[481,-191],[16,-37],[266,-76],[1416,-344],[76,-36],[2,-160],[75,-61],[126,-168],[329,-176],[68,10],[101,-42],[64,26],[140,-68],[169,6],[1,-42],[106,53],[70,-36],[102,52],[305,-94],[53,-120],[288,-64],[272,-50],[969,-322],[216,-207],[-66,-129],[100,-45],[19,-59],[225,-14],[81,-76],[160,-42],[48,-78],[405,-156],[162,-68],[92,-106],[276,-105],[841,-221],[57,-65],[165,-70],[-4,-119],[49,56],[141,43],[213,-59],[33,28],[198,-5],[414,-106],[64,28],[589,-210],[263,9],[944,-262],[243,-125],[-40,-127],[113,-164],[153,39],[93,-20],[0,-40],[133,13],[68,-46],[87,11],[52,69],[88,-3],[133,-78],[238,-24],[81,-102],[135,-63],[224,-26],[378,-176],[19,-59],[300,-62],[86,12],[137,-57],[526,-6],[563,-251],[588,-343],[387,-113],[172,-29],[717,-59],[1298,-209],[247,-184],[89,-15],[37,-67],[217,-7],[-9,-46],[159,-28],[92,-92],[106,-35],[-29,-26],[49,-49],[129,-25],[-15,-34],[137,-63],[47,-64],[-64,-65],[75,-64],[-36,-26],[27,-53],[95,11],[103,-69],[123,0],[121,-81],[40,34],[128,-46],[56,-69],[30,16],[36,-78],[88,11],[0,-59],[155,-14],[-2,-55],[151,-45],[-23,-30],[40,-21],[194,-23],[-26,-45],[148,-99],[-72,-52],[6,-54],[166,21],[138,-57],[201,34],[198,-34],[50,-59],[538,-188],[205,-109],[236,-200],[429,-252],[369,-114],[933,-143],[812,-202],[50,-40],[206,42],[72,-93],[101,28],[104,-83],[94,-21]],[[77611,5821],[200,166],[193,16],[676,548],[224,81],[92,71],[103,161],[-186,205],[53,81],[-160,108],[-142,-14],[-62,56],[-162,-35],[-72,151],[31,68],[-117,134],[-420,-27],[-54,56],[78,89],[116,10],[135,72],[16,125],[-146,183],[41,146],[-69,111],[121,234],[23,172],[446,119],[127,-29],[50,-94],[161,-56],[288,135],[34,62],[-81,55],[19,86],[77,45],[37,363],[39,45],[109,13],[-19,111],[108,113],[103,315],[-104,132],[56,105],[182,14],[174,-61],[454,-18],[117,76],[114,-26],[132,19],[91,30],[73,-49],[149,20],[60,41],[70,-169],[143,-7],[52,-64],[151,11],[110,87],[107,0],[103,107],[-85,64],[-94,170],[93,101],[-89,48],[45,117],[-51,43],[24,43],[-107,239],[232,9],[105,-33],[36,85],[184,90],[112,25],[164,-37],[104,142],[182,124],[-25,36],[-152,25],[103,153],[-50,115],[-145,49],[85,69],[-33,70],[39,69],[-226,121],[163,64],[-24,72],[89,7],[80,130],[412,7],[-23,78],[-107,60],[34,148],[-94,19],[66,113]],[[80349,11072],[171,-20],[162,-78],[110,-217],[-4,-65],[-59,-31],[77,6],[-75,-63],[-165,51],[-169,4],[-124,90],[-143,31],[-158,-52],[-85,74],[48,92],[159,40],[282,-6],[31,41],[-100,68],[42,35]],[[49460,23052],[-246,-462],[16,-91],[114,-26],[61,-87],[209,-15],[58,-62],[-138,-114],[-174,-66],[-83,7],[-92,-82],[-111,-189],[23,-65],[-274,-312],[163,-28],[-22,-34],[127,-37],[133,42],[284,-26],[-136,-99],[13,-50],[-208,-112],[-13,-48],[46,-42],[21,-177],[47,-24],[118,20],[-4,-54],[-104,-71],[6,-96],[112,-30],[23,-205],[77,-83],[169,91],[172,24],[109,-31],[143,52],[151,-23],[97,141],[262,83],[84,103],[146,7],[71,-54],[-69,-114],[197,-176],[559,-39],[-208,-105],[-111,-117],[-142,-54],[1,-120],[68,-42],[-47,-40],[-12,-33],[112,-50],[37,-93],[187,-92],[200,124],[218,2],[267,107],[-145,-111],[-33,-130],[-112,-57],[-25,-104],[-70,-40],[133,-124],[206,6],[56,-28],[-295,-61],[14,-78],[143,1],[-13,24],[10,-47],[92,54],[213,-8],[139,-123],[-38,-67],[56,-31],[79,-74],[7,-78],[-175,-129],[204,-219],[104,-38],[-154,-113],[-18,-300],[-744,-247]],[[64033,26932],[-305,96],[0,49],[-60,-14],[-15,59],[-212,64],[-21,96],[-115,26],[-67,140],[-135,87],[-93,-14],[-57,58],[60,51],[-91,3],[46,72],[-43,39],[-95,5],[-52,128],[-91,41],[1,74],[-140,82],[-73,-14],[-45,88],[31,18],[70,62],[-146,259],[-41,22],[-70,-53],[-29,61],[-127,38],[42,35],[46,61],[-81,36],[35,99],[-100,-3],[-27,70],[-101,62],[-40,-57],[-56,-1],[-17,107],[110,69],[15,181],[-86,12],[-129,-67],[-110,25],[-31,46],[-64,74],[173,70],[-18,111],[115,80],[-32,35],[-75,-12],[-98,-35],[-78,54],[-14,54],[92,86],[-83,58],[-354,174],[-114,100],[24,57],[-121,117],[-24,6],[-1,0],[-63,7],[-21,42],[-76,78],[18,109],[-276,176],[30,47],[-77,84],[-131,123],[-113,19],[-20,73],[-101,27],[-101,160],[-87,-13],[-58,-68],[-131,10],[-321,192],[-35,214],[-149,229],[-55,14],[-105,-47],[-80,40],[1,235],[-183,283],[-67,170],[-110,17],[-167,112],[-157,93],[-54,81],[-176,16],[32,54],[-49,236],[0,2]],[[58034,33074],[13,102],[-78,180],[-55,-159],[-97,-65],[-175,34],[-141,88],[-154,-83],[-300,-39],[-53,-161],[-137,-112],[-66,13],[-11,91],[-127,-53],[-149,65],[-148,-21],[-19,53],[-154,45],[-93,-18],[5,128],[-115,58],[-102,-11],[-18,63],[-76,9],[-97,93],[-113,-7],[-54,94],[-244,-35],[-116,82],[53,21],[-34,90],[-86,1],[-53,95],[46,18]],[[55086,33733],[-38,31],[-144,-54],[-77,10],[-15,-53],[-53,-13],[89,-225],[-139,-127],[70,-104],[-248,-181],[-61,83],[-99,23],[-39,72],[-83,12],[-174,-12],[-140,-52],[-121,-168],[-355,137],[-227,-202],[39,-267],[90,67],[120,-70],[114,-198],[113,2],[29,-106],[-40,-38],[117,-66],[420,23],[78,-25],[171,18],[103,-37],[61,-85],[-108,-132],[130,-58],[-10,-116],[124,-117],[-20,-119],[162,-49],[24,-101],[308,-53],[-11,-51],[-104,-24],[-23,-68],[78,-81],[32,-141],[4,-55],[-107,-51],[-67,-147],[165,-148],[87,35],[184,-73],[49,-117],[19,-148],[-81,4],[-21,-37],[30,-131],[-229,-15],[-76,-105],[108,-194],[-82,-152],[18,-73],[183,-5],[67,-37],[-27,-119],[53,-134],[98,-107],[69,-113],[-39,-78],[35,-178],[-12,-10],[-63,-13],[-137,55],[-256,112],[-115,95],[-268,7],[-76,-95],[-146,-145],[-15,-108],[-8,-171],[171,-47],[-3,-128],[-68,-48],[18,-46],[-210,47],[-289,-164],[-180,-12],[-96,32],[-180,-55],[-68,39],[-130,-60],[-87,63],[-151,24],[-108,-143],[-76,-11],[-40,-80],[-170,-90],[-177,-165],[-148,15],[-179,-82],[71,-43],[80,-181],[270,-95],[-227,-56],[-141,24],[-158,-70],[-149,-1],[-127,35],[-36,97],[-163,79],[-82,-116],[-307,-60],[-313,21],[-162,-36],[-220,-185],[34,-112],[-89,-88],[15,-196],[315,-84],[239,-275],[139,-20],[116,-64],[135,-169],[90,-172],[-80,-208],[57,-128],[-11,-213],[169,-144],[-99,-193],[31,-43],[-37,-27],[-82,13],[12,-104],[124,-162],[-55,-192],[-122,-68],[-19,-51],[65,-50],[-70,-171],[141,-272],[-132,-55],[48,-52],[-41,-102],[78,-152],[52,-1],[13,-147],[55,-37],[-108,-64],[-297,18],[-119,-29],[-131,115],[-86,-27],[-64,49],[-137,-49],[-142,-151],[-93,64],[-128,-40],[-74,42],[-79,-17],[-249,113],[-426,13],[-58,-142],[-143,-95],[-35,-78]],[[60215,16531],[-143,-5],[-199,87],[-74,265],[66,-32],[132,16],[50,63],[121,25],[128,-107],[-12,-52],[165,28],[198,-60],[8,-55],[-204,-178],[-150,-52],[-86,57]],[[20688,74961],[-331,-46],[-112,17],[-52,-58],[-267,12],[-303,-88],[-171,-120],[-1,-77],[-67,-61],[-146,-81],[1,-263],[-203,-93],[21,-55],[166,-93],[-41,-132],[-108,-57],[-11,-49],[36,-56],[141,-61],[-17,-78],[-426,-60],[-211,18],[-152,-386],[-112,-114],[-72,-157],[-149,10],[-81,56],[-98,78],[-120,-8],[-35,106],[-272,-46],[-306,80],[-231,20],[-247,-26]],[[16711,73093],[-96,-90],[73,-102],[-103,-254],[-371,-60],[-2,-78],[-181,-155],[2,-59],[-272,-68],[-80,-80],[-9,-132],[-203,-61],[-38,-51],[-48,-36],[74,-120],[164,-116],[-6,-140],[-92,-85],[13,-75],[121,-104],[123,-45],[15,-176],[51,-78],[93,-16],[19,-331],[87,-79],[-25,-107],[131,-144],[40,-182],[-86,-34],[-188,32],[-157,-84],[-447,71],[-90,-61],[217,-377],[-92,-182],[39,-61],[-49,-56],[-3,-126],[-117,-120],[1,-142],[8,-252],[67,-101],[108,-41],[-3,-126],[204,-174],[-25,-85],[114,-60],[30,-65]],[[15722,68025],[-191,-139],[-18,-73],[-288,-93],[-174,-122],[26,-180],[168,152],[276,3],[94,-16],[28,-144],[208,-199],[63,43],[-75,75],[-12,119],[138,75],[326,-98],[-21,-119],[198,-19],[31,-79],[95,-64],[68,16],[97,151],[143,-20],[81,-74],[-105,-96],[60,-160],[-135,-65],[-117,7],[-173,28],[-198,-264],[-104,-31],[-10,-59],[201,-345],[-31,-28],[-204,-13],[16,-67],[-186,-142],[-62,-14],[-106,38],[-83,-31],[-98,-68],[-63,-124],[-264,32],[-153,-76],[-135,9],[-161,-270],[-122,-67],[48,-3],[49,-29],[-57,-103],[29,-66],[107,-68],[110,-183],[-3,-69],[-88,-75],[132,-131],[-33,-160],[134,-37],[269,115],[25,-158],[72,-108],[79,-26],[94,-159],[-64,-17],[-49,-96],[-96,-62],[140,-63],[149,32],[173,-60],[60,-132],[193,-25],[338,49],[84,-117],[174,-13],[63,-117],[137,81],[229,7],[-7,-102],[58,-43],[-25,-67],[141,-206],[-46,-42],[-139,-21],[-115,-68],[-138,-6],[-93,-72],[-150,-34],[-94,-165],[-83,-48],[-261,7],[-70,-79],[-203,-67],[-112,-108],[11,-107],[86,-84],[-64,-152],[83,-176],[-204,-136]],[[15823,61845],[-71,-173],[9,-102],[139,-78],[-7,-166],[138,-49],[-66,-51],[12,-55],[174,-44],[1,-69],[114,-129],[116,-27],[-188,-94],[52,-68],[-81,-107],[82,-168],[-108,18],[-191,-47],[-164,-138],[-238,-87],[-91,4],[29,-45],[146,-23],[115,-97],[132,-29],[179,68],[85,-10],[169,-163],[236,-66],[263,99],[88,-24],[-7,-62],[-4,-45],[206,-118],[57,-113],[250,-13],[453,-170],[-49,-174],[45,-89],[70,-38],[-22,-103],[166,-81],[-39,-145],[137,-205],[260,-191],[268,27],[131,179],[-11,133],[61,20],[10,71],[177,168],[133,75],[272,30],[82,53],[-79,132],[-163,52],[-22,43],[290,152],[49,83],[246,80],[55,21],[16,85],[91,45],[68,-156],[167,119],[121,-30],[84,-72],[164,60],[135,-20],[181,9],[73,44],[72,-122],[95,-18],[103,-89],[19,-182],[-180,-267],[198,-112],[546,-15],[513,-19],[202,109],[108,120],[287,151],[95,8],[276,-92],[255,28],[108,-47],[-28,-33],[-184,-7],[-93,-103],[-26,-75],[59,-159],[-76,-95],[-94,-21],[10,-167],[-47,-30],[53,-54],[126,-27],[28,-157],[209,-141],[140,-18],[62,38],[125,-61],[104,-77],[-52,-29],[4,-111],[161,-39],[315,-50],[67,34],[-30,52],[41,27],[-63,98],[168,-25],[61,63],[150,22],[98,110],[141,58],[-5,102],[105,59],[91,-3],[185,-118],[96,-114],[249,96],[403,-2],[195,66],[77,-43],[37,109],[94,-26],[122,36],[-67,68],[218,83],[-75,140],[417,81],[99,335],[113,54],[400,73],[213,114],[149,1],[37,69],[-111,140],[-101,15],[-27,106],[-235,90],[-186,129],[33,55],[-69,115],[-70,35],[45,200],[-69,86],[-121,34],[-20,156],[80,101],[-259,82],[-3,98],[-42,97],[-84,19],[4,79],[-99,26],[-21,5],[-99,36],[-32,268],[-154,148],[-15,75],[-116,76],[-41,136],[-127,72],[14,64],[-120,64],[-3,33],[98,40],[-87,29]],[[33267,34247],[54,88],[139,10],[-5,54],[76,9],[-28,17],[-11,58],[-83,-12],[49,125],[-50,31],[-76,67],[-116,15],[65,102],[-63,30],[-3,77],[-82,104],[62,-41],[201,-25],[-70,76],[102,227],[-33,115],[-86,28],[-36,78],[-34,66],[-89,120],[-164,2],[-78,-36],[-244,-15]],[[32664,35617],[31,-86],[82,-2],[116,-131],[163,-385],[34,-248],[-108,-291],[-62,-45],[62,44],[-30,-36],[30,35],[70,-4],[-21,-41],[-39,14],[-6,-63],[-62,33],[51,-50],[-78,-44],[-79,-26],[12,21],[-23,-38],[85,1],[21,35],[188,-14],[166,-49]],[[81176,16086],[259,382],[166,101],[192,-18],[77,73],[-2,80],[-183,97],[-86,138],[180,180],[-82,107],[11,86],[-83,182],[43,28],[-16,168],[-122,91],[4,56],[1,266],[-88,314],[63,133],[94,43],[-33,205],[-61,118],[41,138],[-35,165],[139,40],[-43,208],[69,108],[-43,54],[-258,91],[-116,-111],[-62,43],[-131,-14],[-209,173],[-85,54],[12,95],[-174,122],[-62,134],[70,81],[277,15],[339,208],[165,-23],[-81,70],[128,65],[218,-52],[26,64],[55,15],[-121,105],[22,52],[-162,199],[100,21],[-20,63],[52,65],[-43,109],[202,59],[-92,85],[15,47],[-52,20],[-56,55],[56,66],[-57,80],[122,9],[66,93],[282,115],[112,-7],[35,41],[-48,53],[3,114],[163,91],[14,76],[88,13],[-18,92],[-139,112],[41,131],[99,56],[-58,64],[16,59],[38,43],[120,-7],[166,113],[199,43],[-5,40],[123,74],[4,114],[125,112],[-141,53],[-91,7],[-82,-46],[-14,30],[-10,55],[-133,35],[-97,162],[65,64],[101,21],[-94,59],[69,121],[-23,60],[121,158],[161,96],[3,74],[-160,54],[42,93],[-61,122],[-164,12],[-213,114],[15,93],[132,84],[73,8],[33,-90],[163,-67],[83,39],[167,-11],[29,30],[200,14],[280,-49],[182,-108],[81,218],[-118,166],[-65,12],[27,31],[-129,167],[-7,119],[116,68],[46,204],[204,56],[153,-52],[128,34],[293,253],[355,128],[222,46],[-24,152],[61,101],[150,94],[245,75],[254,239],[34,56],[-153,35],[230,243],[-67,165],[247,36],[160,-71],[54,146],[-78,84],[55,70],[92,32],[95,-14],[30,34],[181,-18],[-12,83],[-191,103],[-273,38],[-136,76],[50,70],[214,70],[39,147],[-33,58]],[[86308,28170],[-55,50],[-403,70],[-140,58],[-672,36],[-289,268],[-347,67],[-312,6],[-105,-38],[-18,-50],[-149,12],[-60,-27],[-271,33],[-109,-25],[-312,97],[-142,112],[-202,15],[-74,-66],[-85,-6],[-285,58],[74,-182],[-249,-43],[-48,-98],[-116,-37],[37,-47],[-37,-67],[-168,-72],[-108,0],[-134,-178],[26,-105],[-160,-94],[25,-88],[-47,-68],[-176,-18],[-220,75],[-214,91],[-242,36],[-102,123],[-72,403],[-56,72],[-79,20],[-45,100],[41,194],[-96,63],[58,204],[-102,106],[59,89],[102,18],[-20,61],[-74,14],[-43,-33],[-154,62],[-197,10],[-79,-81],[-269,53],[-53,6],[-5,42],[-188,42],[-48,66],[-99,15],[-349,277],[-21,-62],[-110,-46],[-167,98],[-155,-62],[-12,62],[-73,4],[23,49],[-107,-16],[-88,72],[51,45],[-20,75],[-87,0],[78,71],[-104,14],[-43,84],[-243,152],[-55,141],[-83,64],[-82,-15],[-182,64],[-54,148],[-370,45],[-305,-51],[-170,-106],[-272,-54],[3,-82],[-106,-105],[-118,-74],[-191,-53],[-102,46],[-36,111],[-274,10],[-100,119],[-548,74],[-148,-17],[-141,72],[3,117],[-267,44],[-104,-16],[-108,57],[67,115],[110,42],[-72,218],[-149,35],[22,151],[-151,60],[-74,122],[-149,114],[-166,30],[-59,70],[-109,-19],[-62,70],[113,155],[25,163],[91,33],[19,62],[237,43],[95,71],[228,14],[93,95],[14,58],[-60,69],[27,62],[42,51],[127,31],[-103,68],[-147,7],[-406,173],[-34,114],[-80,62],[-103,-13],[-149,76],[-94,-15],[-73,44],[-72,-4],[106,243],[-65,136],[101,146],[-47,84],[-7,230],[-625,139],[-448,-11],[-304,40],[-5,173],[84,92],[-178,55],[-37,112],[-428,52],[29,155],[-12,72],[-68,46],[-5,134],[124,192],[-465,156],[-2,114],[160,118],[-90,55],[-22,72],[-303,131],[-42,157],[147,88],[37,99],[139,78],[-20,54],[118,35],[-2,60],[157,-10],[60,94],[152,52],[165,114],[13,82],[-53,60],[74,168],[-14,96],[58,49],[-49,38],[115,78],[17,89],[-40,182],[171,180],[181,83],[68,218]],[[71706,38257],[-67,2],[-43,80],[-212,-52],[-29,124],[-84,-1],[-105,55],[-57,-80],[-67,-17],[4,44],[-121,-2],[-5,-35],[-79,6],[-95,-62],[-159,-1],[-47,-75],[-50,31],[-24,-42],[-22,36],[-33,-76],[-65,30],[-94,-20],[-12,-72],[-86,13],[-44,-49],[-62,21],[4,-80],[-67,12],[-59,-38],[-35,29],[-39,-38],[-54,25],[-50,-31],[42,-26],[-86,-32],[-47,49],[-17,-77],[-68,-13],[20,-50],[-36,-24],[-47,40],[14,-71],[-63,-2],[-10,-44],[-71,3],[4,75],[-20,-54],[-99,-12],[14,-62],[-52,88],[-222,-38],[8,45],[-105,-54],[24,47],[-79,75],[-60,-118],[9,59],[-132,20],[56,42],[-47,28],[-69,-16],[-19,58],[-89,-42],[-38,79],[-108,18],[-13,50],[-210,-54],[-50,84],[-87,8],[-40,107],[59,39],[-40,26],[-47,-16],[5,-64],[-44,61],[-118,19],[-198,-132],[-159,-21],[-91,-50],[43,87],[-59,23],[-21,-116],[-44,49],[-67,-18],[-19,27],[-56,-28],[4,-52],[-156,16],[67,68],[-82,5],[0,55],[-67,-11],[-50,54],[-141,-48],[7,49],[-87,-7],[-25,73],[-34,-83],[-199,81],[-51,-26],[44,-39],[-94,27],[-7,36],[101,55],[-28,35],[-160,-68],[-38,51],[-96,-24],[-26,30],[111,26],[-68,57],[119,24],[32,-70],[62,84],[-182,15],[22,61],[136,14],[-76,84],[-88,14],[3,52],[-94,-16],[-60,229],[73,38],[-86,28],[-304,-105],[-78,-179],[-311,-110],[-135,60],[-391,-112],[-290,3],[-131,41],[-69,-40],[-97,16],[-56,-48],[-189,-3],[-149,-71],[-479,28],[-197,-19],[-89,-127],[-203,-90],[-60,-113],[-121,-24],[-55,-56],[-88,12]],[[62393,38046],[-186,-141],[-106,-177],[-86,-12],[-71,-77],[-24,-71],[204,-185],[33,-146],[-222,-39],[-73,23],[-120,-155],[-503,-191],[-303,-296],[-65,-130],[322,-362],[11,-111],[-75,-36],[-11,-107],[30,-259],[176,-87],[348,-54],[163,-87],[219,-282],[167,-62],[-29,-108],[119,-115],[-57,-34],[15,-46],[79,-35],[32,-67],[127,54],[58,-84],[-8,-136],[-75,-100],[136,-63],[-77,-83],[134,-68],[226,-49],[-75,-138],[-254,-11],[-350,-79],[-222,-360],[-4,-93],[-219,-84],[-188,13],[-209,-60],[-85,-76],[-121,-10],[-141,-314],[47,-177],[-139,-111],[-84,56],[-110,16],[-53,-30],[-74,40],[-107,70],[-15,166],[-230,160],[-122,164],[-137,31],[-118,-17],[-197,76],[-135,-54],[-131,3],[-233,99],[-193,3],[-175,-10],[-91,-92],[-358,-123],[-188,20],[-156,-72]],[[79717,21015],[-163,105],[-232,133],[-82,121],[69,16],[271,-60],[355,-173],[236,-42],[79,-71],[-111,-145],[-422,116]],[[55086,33733],[13,34],[-134,67],[70,40],[5,59],[-109,13],[-262,169],[-79,-20],[-25,30],[-59,44],[41,94],[-56,49],[-93,-13],[-74,136],[-84,-19],[-10,80],[-207,40],[-55,-39],[-106,71],[-214,30],[-164,99],[-142,-2],[-43,70],[-171,-13],[11,-46],[-77,-22],[-79,63],[-92,15],[-269,-46],[-25,-65],[-76,-37],[-64,-33],[-33,-108],[-290,-115],[-193,100],[-115,-56],[-277,-39],[-193,26],[-147,-95],[-264,27],[-293,161],[-352,113],[-103,-48],[-177,40],[-77,-21],[-114,54],[-76,-10],[-39,59],[-163,20],[3,-71],[-143,-76],[-153,-168],[79,-21],[40,-84],[34,-90],[-48,-57],[20,-21],[46,-155],[-110,-68],[34,-59],[187,-53],[-39,-109],[35,-75],[-77,-23],[-98,-162],[-110,-8],[-51,-72],[-66,-7],[-38,-109],[53,-63],[-253,-251],[8,-34],[-84,-40],[72,-199],[-125,-93],[-140,35],[-140,158],[-226,-137],[-74,-31],[48,-28],[-9,-72],[-64,-163],[82,-108],[-112,-87],[-194,65],[-201,-21],[-160,-100],[-93,33],[-120,-35],[43,-158],[-377,-156],[-196,-181],[-138,-47],[-48,-238],[-214,58],[-86,-26],[-65,-67],[72,-125],[-121,-142],[-128,41],[-53,154],[-272,161],[-206,-28],[-222,-98]],[[45353,31178],[36,-98],[131,-47],[-21,-52],[73,-21],[-15,-124],[-184,-63],[50,-52],[493,-272],[-45,-75],[-49,0],[-79,-180],[-238,23],[-79,-139],[-336,-90],[-1,-41],[-183,-263],[64,-109],[81,-42],[-38,-36],[65,-85]],[[45078,29412],[93,-79],[-47,-135],[-242,-152],[84,-138],[-194,-75],[-37,-62],[-179,65],[34,151],[-96,-10],[-56,-75],[5,-90],[-83,-31],[-105,-160],[53,-35],[34,-145],[104,-17],[0,-61],[-93,-168],[137,-149],[-106,-65],[-32,-335],[-193,-120],[-101,-18],[-82,25],[-225,-124],[-63,-49],[-61,-167],[-89,-96],[23,-65],[349,-71],[174,47],[294,-91],[110,-98],[101,55],[199,16],[141,85],[146,-31],[131,148],[104,-71],[370,-11],[55,84],[70,-11],[135,107],[16,104],[87,-135],[-60,-64],[72,-44],[47,-104],[149,-87],[-60,-170],[25,-112],[-113,-114],[7,-52],[-90,-55],[140,-6],[-146,-228],[-109,10],[-11,-129],[-66,-84],[247,-212],[-1,-179],[-63,15],[-39,-74],[-116,-53],[-22,-118],[-83,-56],[-16,-78],[-185,-38],[134,-70],[-33,-107],[27,-59],[86,-23],[21,-114],[-149,-96],[-155,-30],[-21,-75],[149,-187],[198,21],[180,-85],[190,-66],[142,40],[187,-47],[408,-266],[178,-48],[46,-114],[45,-68],[200,-78],[409,47],[148,69],[144,-30],[-24,-60],[-193,-145],[329,-44],[68,-8],[190,-20],[164,-100],[307,118],[142,98],[161,-266],[149,10],[48,-47],[35,-225]],[[34887,44105],[120,-112],[-28,-52],[104,-23],[52,-68],[45,-92],[-51,-41],[99,-114],[-23,-47],[75,-14],[123,77],[72,-163],[205,4],[46,-146],[0,-112],[98,5],[119,-139],[258,-16],[82,-66]],[[36283,42986],[107,91],[117,8],[32,101],[249,22],[54,96],[88,32],[212,-1],[102,55],[111,20],[0,78],[120,64],[157,-98],[50,48],[158,-12],[64,53],[213,-17],[81,74],[2,81],[81,25],[25,52],[-167,149],[169,3],[203,-60],[173,10],[191,59],[107,104],[179,-56],[226,72],[79,-105],[-38,-59],[1,0],[107,-130],[-51,-106],[138,-287],[162,-23],[84,76],[-28,42],[77,142],[338,-154],[-41,137],[221,-31],[-34,-61],[172,-37],[147,-99],[190,27],[103,-121],[85,24],[115,-49],[89,33],[116,-26],[0,-98],[174,-74],[67,49],[126,4],[46,-64],[120,67],[61,-183],[214,52],[401,397],[-75,173],[76,100],[248,177],[266,117],[85,66],[49,158],[127,75],[114,22],[210,-46],[206,81],[63,-13],[239,71],[161,159],[-25,303],[31,85],[80,43],[-26,82],[84,193],[76,112],[93,19],[125,97],[328,7],[66,84],[-21,285],[45,33],[252,-66],[94,-111],[314,41],[190,-28],[78,-56],[60,21],[37,170],[68,8],[33,78],[62,29],[160,-39],[131,72],[73,95],[-111,59],[-12,74],[91,54],[238,42],[381,-33],[260,34],[98,114],[-275,410],[442,-23],[746,-334],[517,-24],[290,140],[352,-105],[154,-9],[63,-133],[269,23],[380,114],[166,105],[180,-135],[186,-18],[44,76],[-46,76],[79,1],[1,69],[83,64],[-46,57],[-167,-14],[-36,38],[62,86],[-36,86],[213,69],[-95,177],[87,69],[-32,77],[30,34],[76,-24],[66,48],[99,5],[179,164],[-60,127],[57,41],[75,-8],[-1,122],[160,53],[-118,272],[72,46],[99,239],[269,135],[148,4]],[[52482,48623],[-103,66],[-93,10],[-68,59],[35,30],[68,-7],[92,50],[94,109],[118,38],[28,72],[212,21],[16,80],[284,257],[-4,196],[-132,104],[-141,178],[-119,305],[25,187],[-34,38],[-246,44],[-49,68],[156,146],[55,123],[-140,156],[59,90],[109,43],[-38,89],[66,332],[159,164],[62,332],[222,84],[120,109],[321,90],[54,147],[-84,652],[-87,247],[-336,196],[-321,-9],[-251,-59],[-1461,-549],[52,-95],[-57,-71],[-33,-388],[-466,-328],[-226,-186],[-115,-35],[-271,-43],[-128,10],[-136,61],[-335,-130],[-64,51],[-284,-52],[-94,15],[5,-116],[93,-116],[-17,-40],[-146,-34],[-44,-46],[116,-94],[1,-120],[-79,-13],[-62,-14],[-12,-61],[-120,2],[-19,-61],[-140,-12],[-9,-66],[104,-51],[-306,-163],[52,-51],[-81,-39],[-27,-117],[-266,-8],[81,-83],[24,-160],[97,-40],[36,-117],[-71,-20],[-168,-223],[-114,-63],[-120,-5],[30,-91],[-47,-111],[-310,-170],[-164,69],[-122,-85],[-179,-31],[-365,96],[-264,-20],[-34,-157],[-287,-281],[-551,-135],[-155,-9],[-146,-60],[-69,41],[-58,-43],[-98,18],[-326,-39],[-8,181],[-174,98],[39,96],[-135,71],[-77,150],[-37,173],[-158,73],[-76,106],[-112,36],[37,32],[-35,81],[-89,-14],[-166,93],[-80,341],[-120,116],[-28,158],[-102,28],[-13,46],[13,80],[-174,64],[-242,247],[-30,116],[69,14],[15,46],[-88,262],[-64,50],[14,94],[-73,11],[-90,215],[-57,216],[60,200],[-118,143],[-75,215]],[[42462,52619],[-142,97],[-33,145],[-87,98],[-4,112],[116,286],[-46,114],[48,85],[-47,165],[60,48],[65,14],[-4,96],[-96,134],[161,205],[7,127],[-171,223],[3,68],[-139,81],[-4,48]],[[42149,54765],[-132,93],[-60,-64],[-233,-82],[-24,-53],[-108,67],[-400,-14],[-167,-156],[150,-105],[-32,-30],[43,-76],[-7,-92],[-80,-79],[15,-64],[-109,-141],[34,-423],[-65,-149],[114,-92],[-34,-77],[27,-165],[106,-36],[4,-46],[-66,-48],[-29,29],[-85,-16],[-2,-43],[-73,-19],[23,-40],[-113,-190],[44,-14],[-91,-122],[-61,10],[13,-60],[-69,-79],[-114,10],[-73,-35],[-63,47],[27,-99],[-183,-77],[-74,26],[-66,69],[86,53],[-119,49],[129,24],[-226,210],[0,117],[69,23],[-32,85],[-133,70],[52,81],[-59,43],[54,94],[-92,43],[18,54],[-113,52],[58,62],[-66,28],[-138,-24],[48,89],[-126,125],[-75,53],[99,135],[-76,32],[-41,76],[45,55],[-50,43],[-37,171],[-110,31],[-74,-1],[-120,78],[-36,-64],[-328,-116],[-212,-250],[-201,-446],[-201,-25],[4,143],[-82,77],[-271,120],[-65,87],[-146,-57],[-556,-36],[-52,-49],[-277,13],[-13,-36],[-134,-26],[-259,97],[-88,-53],[-107,27],[-109,-39],[-171,17],[-53,69],[-275,-31],[-91,-52],[-32,-111],[-120,-33],[-18,-75],[-179,63],[-76,-77],[-307,10],[-33,82],[-111,37],[-101,-79],[-81,-5],[-138,27],[-133,98],[-156,-17],[-55,-69],[-90,-1],[-80,55],[-251,145],[92,109],[-14,53],[-66,28],[-87,-33],[-59,46],[-246,-4],[-20,28],[90,116],[-22,78]],[[33091,54122],[-377,-212],[-166,-36],[-485,97],[-147,-209],[-274,-133]],[[45078,29412],[-182,-45],[8,-79],[-240,-49],[10,-109],[-48,-38],[-113,-10],[-35,-53],[-258,-20],[-327,112],[-62,-108],[-233,-123],[-45,48],[-80,-2],[-51,118],[-200,-31],[-229,110],[-277,50],[-201,86],[-174,-56],[5,-104],[-67,-116],[-415,-288],[-499,-244],[-232,-142],[-322,-148],[-58,-185],[-183,-182],[-153,-247],[-312,-103]],[[40105,27454],[246,-259],[144,-251],[60,-202],[-13,-251],[20,-293],[-39,-220],[-102,-302],[-116,-173],[-22,-220],[-70,-185],[-153,-327],[24,-86],[-84,-45],[58,-82],[-93,-82],[-277,168],[-110,-50],[178,271],[-221,30],[-218,-67],[-108,20],[-100,-30],[25,-123],[-142,-83],[-42,-213],[-57,-50],[15,-92],[270,-27],[50,-49],[133,41],[87,-52],[93,51],[4,92],[41,4],[-29,20],[64,11],[183,-92],[4,-49],[-102,-57],[177,-128],[22,-158],[-39,-64],[-84,-23],[183,-128],[0,-56],[-63,-31],[78,-107],[-30,-36],[-94,2],[2,-112],[-127,-36],[62,-60],[-15,-73],[50,-77],[-46,-58],[56,-78],[-116,-59],[141,-107],[27,-95],[149,217],[-14,31],[-13,-69],[-113,138],[87,0],[62,-67],[207,22],[74,-39],[-12,-56],[157,-27],[59,-139],[370,-160],[110,-117],[7,-90],[148,-147],[38,-119],[-45,-82],[-270,-6],[68,-101],[555,-208],[233,-214],[470,-212],[84,-138],[13,-86],[-78,-102],[349,-255],[-16,-84],[48,-80],[-47,-46],[70,-121],[-32,-61],[87,-88],[489,-199],[44,-79],[-54,-31],[753,-249],[618,-308],[1065,-356],[418,-255],[10,-55],[-82,-45],[25,-104],[462,-197],[65,-129],[74,-13],[81,-77],[34,-136],[114,-69],[84,-195],[101,-64],[6,-134],[100,70],[77,-47],[-11,-54],[105,66],[163,-23],[323,-97],[341,-195],[120,-160],[-52,-127],[-323,29],[119,-22],[154,-167],[80,6],[32,-45],[150,9],[211,-86],[137,-155],[-39,-112],[-229,5],[-66,-74],[258,-52],[22,-81],[110,-5],[34,-73],[144,7],[179,-62],[-1,-34],[140,-3],[85,-63],[-18,-40]],[[62393,38046],[-237,86],[-143,133],[-91,-56],[-41,20],[41,133],[-37,41],[197,96],[-32,90],[106,260],[-201,592],[67,51],[-59,109],[23,66],[-89,119],[-318,39],[-155,58],[12,138],[-94,44],[-46,213],[-109,112],[66,112],[-25,143],[66,170],[-15,95],[-390,70],[-444,240],[-11,63],[-502,203],[-82,108],[-146,-16],[-169,-74],[28,-131],[-67,-107],[-215,-31],[-63,-198],[49,-116],[-38,-118],[61,-56],[-108,-121],[24,-56],[-252,-193],[-52,-119],[-27,-655],[35,-260],[67,-98],[-82,-27],[-217,-3],[-204,145],[-144,5],[-56,-49],[-101,5],[-168,136],[-61,180],[38,128],[-224,424],[-218,15],[-209,-39],[-328,51],[-272,-12],[-47,-48],[-97,-8],[-278,70],[-94,-191],[-423,16],[-198,-82],[-276,-20],[-198,-98],[-249,-10],[-212,73],[-396,226],[-365,9],[-94,272],[-426,200],[-60,-8]],[[53318,40605],[-348,58],[-147,97],[-21,81],[-71,25],[-274,-64],[-17,-55],[-149,62],[-61,107],[-208,136],[-45,-17],[-161,62],[-62,-29],[-209,3],[-288,270],[-157,259],[-216,177],[-71,-55],[171,-264],[-123,-25],[-30,-38],[-221,121],[-37,-37],[-160,30],[-144,92],[-208,-93],[-35,85],[-152,84],[-41,215],[-71,32],[-117,-47],[-148,137],[-85,23],[-72,-70],[21,-66],[-133,-31],[-167,-221],[-161,-87],[-97,-7],[-117,-113],[-154,66],[-104,-167],[-113,86],[-259,23],[-57,-20],[-26,-207],[-79,-43],[-53,-99],[-191,-77],[-125,21],[-49,58],[-129,47],[-86,97],[-80,5],[-110,-103],[52,-6],[4,-45],[-63,-118],[-181,-80],[-84,64],[-113,-47],[11,90],[60,1],[86,70],[30,179],[-62,220],[-324,64],[-91,-23],[-136,0],[-40,-134],[-53,-27],[-109,133],[-257,16],[-68,58],[-201,-5],[-88,93],[-126,-407],[-178,-117],[-341,-2],[-226,-91],[-115,27],[36,43],[-38,55],[-312,43],[-203,-113],[-241,26],[-207,-119],[-2,-139],[-113,-19],[-56,-55],[-97,28],[-71,71],[-51,-47],[-89,49],[-293,-24],[-179,-97],[-9,100],[-147,69],[-47,81],[-75,7],[-175,119],[-111,-46],[-11,-51],[-290,-230],[-288,-78],[-322,-369]],[[41067,40346],[3,-27],[94,30],[11,-51],[285,-16],[191,-164],[33,-111],[232,-11],[46,-117],[-154,-95],[30,-81],[-36,-37],[-274,-45],[-36,-62],[31,-33],[-247,24],[0,-68],[-136,58],[-76,65],[11,69],[-202,38],[-73,125],[-274,145],[-483,555],[-56,34],[-131,14],[-20,-25]],[[39836,40560],[9,-93],[39,-88],[58,-13],[-59,-63],[56,-52],[-4,-68],[84,-54],[-34,-69],[52,-43],[-50,-25],[159,-119],[-84,-306],[194,-131],[87,-115],[-102,-30],[-134,71],[-105,-48],[-176,73],[-219,30],[-79,122],[-1,103],[-138,49],[-122,-63],[-257,75],[-47,51],[-348,-50],[-104,49],[-113,-70],[-237,-29]],[[38161,39654],[-35,-111],[-186,-46],[111,-140],[-4,-164],[107,-85],[-16,-101],[86,-159],[-48,-70],[96,-77],[156,-38],[-48,1],[-120,-113],[169,-225],[2,-10],[69,-63],[141,0],[60,-49],[21,-110],[148,-152],[-81,-71],[137,-159],[133,4],[46,-176],[-75,-52],[34,-85],[137,-117],[69,14],[5,-119],[174,-11],[82,-101],[104,-26],[53,-157],[38,41],[48,-14],[108,51],[66,81],[211,-12],[84,84],[79,-96],[93,-16],[48,-76],[79,-11],[69,-131],[-144,-63],[84,-90],[-131,-93],[91,-77],[-27,-104],[-85,-40],[70,-203],[99,-12],[250,-230],[87,27],[51,-25],[14,-53],[178,-114],[144,-202],[285,-172],[50,-107],[-41,-137],[41,-78],[-6,-50],[120,-87],[349,-167],[141,59],[166,-13],[52,-44],[206,54],[138,-76],[140,28],[248,-78],[98,6],[80,-102],[106,62],[420,-250],[115,25],[72,101],[199,-55],[123,-9],[54,30],[161,-83],[-113,-132],[194,-48],[229,-130],[-32,-37],[77,-47],[11,-64],[-110,-41],[-56,-136],[-159,-50],[-20,-50],[146,-72],[184,-220],[262,-227],[77,-73],[-48,-80],[62,-67],[124,-17],[68,-77],[92,-105],[-138,-219],[-6,-43],[58,8],[17,-250],[58,-95],[111,-243],[-74,-39],[-52,-106],[-114,-42],[-45,-169],[-57,-63],[-2,-253]],[[15823,61845],[-292,113],[-82,107],[-147,50],[-96,106],[-425,57],[-111,-110],[-210,-30],[-63,25],[-138,-144],[-571,-432],[-768,-569]],[[12920,61018],[546,-400],[171,-194],[95,-178],[-14,-108],[154,-280],[-39,-74],[-109,-65],[76,-149],[19,-105],[215,-187],[67,-140],[318,-255],[353,-374],[150,-202],[15,-94],[-32,-48],[-189,-55],[-20,-38],[598,-407],[53,-131],[146,-237],[421,-294],[25,-71],[184,-103],[582,-298],[637,-334],[80,-72],[-28,-61],[62,-68],[352,-197],[282,-163],[286,-187],[144,-151],[-30,-29],[-50,23],[35,-21],[-56,-34],[38,18],[206,-161],[43,-167],[447,-431],[43,-77],[-45,-157],[-100,-82],[-166,7],[0,-49],[159,-130],[429,-191],[512,-298],[229,-197],[138,-192],[84,-244],[-69,-97],[71,-178],[-41,-129],[-143,-91],[-2,-93],[864,-767],[63,-113],[-9,-186]],[[33091,54122],[134,-44],[97,17],[10,38],[80,19],[52,149],[98,10],[33,43],[284,-40],[265,122],[64,-74],[121,-1],[67,136],[136,-24],[67,86],[124,3],[-39,91],[144,91],[53,118],[-28,51],[73,63],[-16,84],[-176,271],[147,257],[-38,69],[-161,119],[-117,-16],[-299,142],[-71,148],[-91,41],[-122,152],[-377,66],[-330,78],[-315,-37],[-124,56],[-519,54],[-153,-89],[-69,-111],[-167,-2],[-174,-78],[-31,35],[-332,12],[-186,-57],[-99,52],[83,130],[-251,198],[68,134],[85,43],[-25,85],[119,149],[-12,61],[-191,58],[-76,-12],[-218,274],[54,47],[-89,153],[-282,52],[-144,100],[-77,84],[-147,10],[-20,66],[250,101],[104,102],[-9,114],[180,39],[4,60],[-51,31],[-242,-64],[-92,54],[-16,104],[-153,16],[-60,31],[125,84],[-45,96],[262,10],[74,55],[-87,116],[-71,-19],[-129,50],[-121,-28],[-26,98],[145,313],[-142,4],[-196,255],[-210,87],[-56,-27],[-116,156],[-135,32],[72,93],[-138,291],[85,125],[-146,277],[77,91],[-63,0],[-18,65],[74,-10],[34,56],[223,76],[-15,72],[-44,-2],[-63,81],[35,81],[-140,40],[-64,107],[-536,213],[-60,121],[86,110],[-132,49],[-128,132],[-57,269],[-92,118]],[[15722,68025],[-209,-20],[-279,-131],[-209,-31],[-184,51],[-82,123],[-114,-6],[-95,46],[-191,-39],[-360,-235],[-331,26],[-44,-33],[-100,1],[-166,224],[-75,41],[-4,63],[-119,103],[-20,141],[-208,-73],[-346,72],[-71,111],[197,407],[-247,163],[-143,10],[109,93],[-120,33],[49,89],[-26,32],[-212,95],[-105,-4],[-121,-60],[-150,149],[-197,364],[2,80],[80,99],[-186,115],[-49,92],[-140,64],[-26,-68],[-219,-65],[-46,-61],[-59,8],[-645,-144],[-182,5],[-19,-79],[-31,-347],[-103,-151],[30,-54],[-38,-94],[79,-61],[-42,-75],[-227,-24],[32,-133],[-60,-50],[-33,-142],[83,-180],[311,-88],[-419,-307],[-111,-26],[-29,-104],[-372,62],[-919,-223],[-337,-159],[-54,-115],[-99,-39],[176,-87],[-6,-65],[-167,59],[-308,-6],[-286,-172],[-432,-463],[-1167,-1417],[0,-1]],[[5531,65414],[2671,-934],[857,-335],[538,-256],[453,-218],[591,-354],[292,-352],[85,-290],[135,-107],[276,-131],[45,-28],[60,-59],[1,-84],[414,-225],[132,-77],[444,-288],[443,-363],[20,-158],[-68,-137]],[[27155,42261],[291,-276],[259,-170],[66,-55],[29,-118],[84,-56],[172,-85],[84,-74],[-28,-39],[111,-59],[54,-70],[-83,-45],[49,-47],[-20,-35],[354,-191],[-20,-92],[61,-35],[-5,-50],[201,-152],[143,-178],[-53,-68],[140,-214],[-119,-84],[162,-131],[71,-129],[-40,-55],[72,-72],[-44,-50],[67,-29],[63,-45],[42,-67],[-63,-41],[195,-211],[19,-153],[-76,-115],[-181,-17],[-43,32],[-127,-54],[26,-73],[-48,-52],[77,-169],[-25,-81],[-86,-4],[65,-29],[-19,-34],[1185,-407],[911,-382],[314,-148],[4,-70],[296,-137],[70,-137],[194,-190],[-3,-67],[-87,-13],[273,-151],[319,-184],[117,-178],[1,-46],[-57,-23],[32,-25],[206,-223],[-53,-192],[-172,31],[2,-84],[92,-31],[78,-143],[-90,-72]],[[33267,34247],[262,-94],[137,-63],[35,-17],[83,-55],[133,-101],[22,-95],[-14,-44],[-81,-17],[39,-43],[-48,-31],[43,-101],[-30,-28],[489,-137],[282,-96],[766,-346],[128,-170],[37,24],[47,-38],[-10,-36],[134,-49],[89,-125],[93,-53],[-47,-22],[34,-17],[-8,-90],[37,-121],[-77,-22],[-44,-185],[-95,-15],[39,-52],[-61,-33],[56,-23],[-42,-51],[154,-59],[299,-106],[160,-121],[162,-102],[7,-88],[254,-172],[2,-188],[101,-78],[25,-125],[206,-123],[-61,-127],[153,-78],[73,-100],[327,-138],[67,-102],[314,-157],[103,-400],[-1,-128],[-79,-45],[266,-331],[0,-57],[-60,-21],[177,-139],[236,-168],[1525,-1294]],[[38161,39654],[-280,209],[-50,93],[-244,61],[-42,51],[-60,-16],[-37,172],[131,115],[-183,649],[-106,159],[-103,-5],[-54,40],[-95,140],[45,98],[-155,191],[-94,235],[-91,56],[120,169],[-157,138],[23,63],[-104,155],[-140,-39],[-52,262],[-158,176],[41,124],[-33,36]],[[35873,32447],[1,0],[-1,0],[-1,1],[-1,0],[-1,0],[-2,-1],[1,0],[1,0],[2,0],[1,0]],[[35746,32077],[-1,0],[0,-1],[0,1],[-1,-1],[0,-1],[3,1],[0,1],[-1,0]],[[35731,32106],[-1,0],[-2,0],[-2,0],[-1,0],[-1,-1],[-1,0],[-1,-1],[0,-1],[-1,0],[0,1],[-1,0],[-1,0],[0,-1],[-1,-1],[0,-1],[-1,-1],[-1,0],[-1,0],[-1,0],[-1,0],[0,-1],[-1,0],[-1,1],[-1,0],[-1,-1],[-1,0],[0,-1],[-1,-2],[0,-1],[-1,0],[0,-1],[-1,0],[0,-1],[1,0],[1,0],[0,-1],[0,-1],[0,-1],[0,-1],[0,-1],[0,-1],[-1,0],[-1,-1],[-1,0],[-1,-1],[0,-1],[0,-1],[0,-1],[1,0],[1,0],[1,-1],[1,0],[0,-1],[0,-1],[0,-1],[0,-1],[1,-1],[1,0],[1,0],[0,-1],[1,0],[1,-1],[0,1],[1,1],[0,-1],[0,-1],[1,-1],[0,-2],[0,-2],[0,-1],[5,1],[0,-1],[1,0],[2,0],[0,-1],[0,-1],[0,-1],[0,-1],[1,0],[3,0],[1,0],[0,1],[1,0],[1,0],[0,1],[-1,0],[-1,1],[-1,0],[0,1],[0,1],[1,1],[3,1],[1,0],[1,1],[1,0],[0,-1],[1,-1],[1,1],[1,-1],[1,0],[1,1],[1,0],[-1,0],[-1,0],[0,1],[-1,0],[-1,0],[0,1],[-1,-1],[-1,2],[1,1],[1,0],[1,0],[1,1],[1,-1],[1,1],[0,1],[0,1],[1,0],[1,0],[0,-1],[1,1],[-1,0],[0,1],[0,1],[1,0],[2,0],[1,0],[0,1],[1,1],[-1,0],[0,1],[-1,0],[-1,0],[0,-1],[-1,0],[-1,0],[0,1],[-1,0],[-1,1],[-1,0],[0,1],[0,1],[-1,1],[-1,1],[1,0],[0,1],[0,1],[1,0],[0,1],[1,1],[2,0],[-1,0],[0,1],[0,1],[-1,0],[-1,0],[-1,0],[1,0],[0,1],[1,0],[0,1],[0,1],[0,1],[-1,0],[-1,-1],[-1,0],[0,-1],[-1,0],[-1,0],[-1,0],[-3,1],[-1,1],[-1,0],[1,1],[1,2],[1,2],[1,1],[0,1],[0,1],[-1,0]],[[28656,70662],[190,12],[94,-86],[418,-131],[96,-85],[121,24],[169,187],[315,-218],[140,-272],[64,-24],[4,-53],[-103,-66],[-20,-61],[136,-54],[137,42],[85,-74],[9,-89],[186,-42],[42,51],[169,-37],[50,84],[256,40],[54,-72],[151,-42],[69,-88],[451,16],[111,-70],[128,80],[69,-17],[70,38],[235,-213],[83,6],[102,-44],[133,92],[153,-4],[42,-102],[81,-38],[134,17],[54,-43],[89,8],[234,-73],[48,28],[179,-3],[153,-42],[145,20],[179,-174],[303,-69],[315,-189],[258,35],[140,-15],[154,-81],[-38,-109],[103,-165],[-79,-56],[58,-90],[-14,-129],[340,-233],[103,-251],[141,-41],[9,-114],[-69,-128],[301,-82],[323,6],[278,53],[282,-80],[326,85],[111,-61],[100,-2],[144,53],[221,-59],[440,50],[75,51],[101,183],[92,47],[216,-110],[306,-373],[148,-65],[-36,-142],[129,-107],[145,-23],[300,-122],[797,-112],[454,213],[261,31],[223,34],[108,66],[61,-63],[367,-15],[211,-183],[125,-51],[164,48],[294,-56],[162,10],[-55,37],[-51,174],[132,-28],[56,46],[228,-34],[124,-101],[21,29],[44,-13],[56,-40],[1,-46],[-57,-25],[28,-38],[105,34],[44,-27],[203,13],[120,47],[19,55],[229,164],[223,-15],[178,82],[64,292],[411,159],[31,-137],[254,-383],[27,-145],[30,-235],[249,-132],[54,-77],[-1,-278],[-71,-146],[-424,-364],[108,-239],[-55,-84],[76,-51],[-42,-103],[73,-27],[76,-135],[-32,-59],[110,-79],[11,-193],[46,-146],[-49,-169],[71,-313],[-47,-310],[31,-396],[-93,-96],[-377,-78],[-97,-40],[-7,-58],[-82,-7],[-79,-66],[-299,-56],[-60,49],[-11,100],[-137,-19],[-66,-39],[-38,-98],[-110,-9],[-25,-83],[-85,-43],[-190,99],[-108,5],[-60,-35],[-271,44],[-108,147],[-156,-22],[1,45],[-237,109],[-265,-27],[-299,64],[-218,-24],[-169,36],[-124,-64],[-32,35],[-203,-34],[-13,-33],[-310,-27],[16,-106],[108,-104],[1,-86],[193,-148],[-41,-118],[-228,-55],[-45,-46],[116,-332],[120,18],[97,-68],[19,-153],[-52,-40],[-19,-153],[32,-70],[-76,-159],[-23,-37],[-184,-39],[-105,-218],[-214,-98],[-196,-21],[-250,-114],[-17,-76],[-107,-69],[35,-15],[-94,-187],[-366,-232],[136,-133],[-149,-353],[82,-176],[292,-337],[200,-67],[78,-92],[81,-21],[58,-207],[182,19],[33,-111],[60,-20],[-41,-113],[-71,-25],[86,-55],[4,-67],[-149,-101],[-2,-394],[117,-36],[18,-182],[137,-37],[51,-101],[133,-24],[51,-135],[227,-213],[20,-189],[140,-10],[99,-91],[-80,-44],[4,-109],[-64,-90],[209,-37],[217,78],[92,-61],[257,127],[103,0],[184,70],[231,-286],[-75,-146],[-46,-324],[-335,-84],[-265,10],[-67,-88],[-176,-66],[88,-50],[52,-131],[-57,-282],[119,-115],[15,-142],[89,-125],[-44,-44],[33,-102],[-51,-92],[-111,-65],[-401,-58]],[[42462,52619],[273,199],[83,6],[76,95],[298,60],[65,-31],[91,15],[134,88],[-7,102],[178,133],[132,255],[-30,114],[-134,72],[124,39],[-9,59],[114,-21],[74,59],[349,2],[73,236],[157,112],[333,78],[213,4],[161,-25],[112,-155],[89,-19],[204,67],[108,-4],[43,-37],[130,43],[266,-18],[154,-79],[299,-9],[2,45],[-238,121],[-22,49],[-61,14],[-29,86],[-106,40],[-43,224],[-128,-3],[-89,61],[123,30],[28,72],[-83,163],[104,121],[131,63],[-12,45],[114,76],[46,111],[121,82],[6,127],[58,29],[112,-22],[167,26],[143,147],[253,53],[162,-55],[280,75],[321,-160],[94,24],[-3,56],[184,89],[-1,128],[183,117],[-52,144],[76,92],[5,95],[138,70],[148,21],[42,123],[409,30],[171,72],[294,57],[219,-110],[183,7],[228,-239],[450,-375],[67,-15],[174,39],[201,101],[166,5],[318,83],[403,335],[131,11],[160,94],[179,88],[319,32],[141,141],[94,269],[225,266],[426,206],[-30,94],[-303,69],[-106,114],[-100,159],[10,84],[94,80],[-43,171],[-257,155],[-271,254],[2,339],[97,101],[114,255],[289,137],[107,274],[247,227],[-7,133],[280,173],[221,-73],[67,-126],[77,1],[74,-48],[103,30],[139,-72],[343,-14],[68,-105],[137,-44],[476,-52],[239,57],[157,-89],[417,7],[310,-104],[7,-82],[62,-44],[740,-262],[20,-177],[143,-55],[50,-123],[229,-112]],[[57949,59067],[227,27],[99,-22],[92,119],[93,42],[-43,131],[110,38],[-121,245],[27,45],[-135,64],[-133,204],[35,73],[128,-108],[104,84],[119,-63],[22,-67],[131,37],[188,-56],[77,190],[187,14],[71,72],[253,-50],[60,50],[156,9],[69,-19],[-14,-73],[218,51],[127,119],[83,1],[43,128],[-166,139],[54,149],[-95,51],[36,51],[-139,55],[-57,-15],[-8,53],[-76,23],[31,28],[-62,30],[-1,118],[-108,28],[7,77],[-161,57],[53,76],[-94,3],[-30,93],[113,51],[-24,73],[199,152],[37,86],[-45,67],[54,106],[-56,41],[43,56],[-29,107],[138,74],[-134,155],[99,87],[7,59],[198,133],[93,243],[115,1],[110,140],[123,48],[111,142],[63,22],[48,116],[109,8],[2,42],[293,118],[199,8],[60,100],[113,53],[-4,43],[146,55],[47,-22],[112,47],[130,-16],[104,55],[64,-26],[187,94],[121,-17],[78,66],[277,39],[-19,78],[76,74],[29,-32],[90,54],[38,58],[58,-25],[-24,23],[40,12],[80,-11],[29,-38],[108,53],[149,-35],[37,52],[134,15],[56,-47],[5,32],[134,36],[89,-64],[-19,50],[113,-28],[-21,84],[66,49],[119,-69],[83,77],[-54,53],[77,-5],[-49,41],[46,24],[18,-38],[76,18],[-44,28],[91,34],[-92,28],[-5,35],[119,-26],[21,54],[54,-73],[22,31],[73,-6],[75,117],[1,-52],[52,23],[25,75],[-83,33],[115,76],[-14,72],[88,9],[-10,-33],[68,79],[-79,120],[42,54],[80,13],[9,69],[-110,98],[-74,-24],[-15,99],[-45,-29],[23,43],[-38,19],[43,34],[-70,22],[-17,131],[-59,-20],[25,84],[-41,-34],[-42,36],[-22,251],[-157,106],[-48,-26],[-173,232],[-33,-36],[-59,36],[71,98],[-102,39],[68,11],[-6,51],[-239,183],[-13,227],[99,40],[-15,55],[51,-4],[-67,76],[96,4],[-56,72],[45,54],[-52,13],[63,42],[-85,-2],[15,45],[61,-9],[3,40],[81,13],[-34,30],[102,0],[-72,12],[75,62],[175,19],[-14,72],[-45,7],[34,34],[22,-23],[78,97],[-76,143],[53,22],[5,76],[59,-18],[34,123],[52,-2],[-48,59],[108,56],[-20,33],[-40,-25],[72,95],[135,-9],[-7,34],[60,-39],[46,70],[42,-36],[41,36],[-18,134],[101,41],[97,-25],[11,55],[-61,-6],[65,37],[84,-10],[8,36],[-73,-9],[39,56],[54,-22],[16,47],[29,-31],[39,47],[73,-9],[32,69],[-44,38],[94,1],[-30,88],[215,103],[-65,39],[176,6],[-22,44],[59,-23],[-22,45],[64,24],[-70,40],[44,43],[61,-31],[-18,54],[69,16],[-13,57],[47,25],[-76,21],[31,73],[122,26],[49,-31],[38,29],[-115,240],[77,119],[97,46],[-72,15],[61,13],[-65,24],[88,52],[-57,30],[148,92],[-113,-20],[-12,117],[-49,8],[-8,146],[100,84],[-74,-5],[31,77],[-35,4],[102,67],[4,36],[-58,13],[163,98],[-52,45],[115,60],[-23,52],[81,75],[-28,46],[104,27],[15,35],[-42,14],[53,50],[107,11],[-46,100],[-58,-41],[-6,34],[127,56],[-29,32],[49,-8],[25,47],[-49,20],[112,17],[31,54],[-47,26],[69,-9],[-1,89],[58,18],[-84,42],[25,76],[46,11],[-88,-7],[74,81],[-42,84],[34,60],[-85,21],[50,16],[-58,68],[61,51],[-54,13],[18,-35],[-51,-21],[22,70],[-55,-6],[-29,51],[168,77],[-14,41],[106,30],[50,12],[-7,-51],[125,40],[75,-31],[14,69],[55,-41],[-15,202],[129,-51],[82,31],[37,-41],[53,62],[-40,47],[128,-32],[91,124],[131,-66],[14,72],[64,6],[-60,72],[90,-3],[-11,53],[97,-30],[49,49],[131,-68],[171,75],[38,-65],[67,25],[0,-50],[122,102],[5,-98],[102,66],[-3,68],[60,-73],[32,86],[86,28],[-47,78],[79,27],[29,64],[-89,22],[95,6],[-2,60],[68,-10],[37,-67],[13,90],[119,-12],[127,153],[118,11],[-15,-57],[91,58],[40,-36],[8,148],[129,-16],[-15,-50],[78,-27],[72,90],[-2,-92],[47,-3],[64,57],[2,87],[120,2],[56,46],[-86,33],[-7,38],[-48,-14],[-9,77],[125,-2],[-1,-50],[92,14],[73,-69],[43,51],[99,2],[-49,137],[75,-2],[50,-67],[54,81],[69,28],[72,-18],[-66,55],[75,19],[-27,48],[66,66],[-109,23],[133,5],[-78,33],[56,24],[128,-8],[-94,102],[205,-11],[45,74],[3,-62],[106,16],[20,-55],[24,126],[-67,12],[10,35],[129,31],[-21,-62],[53,-26],[40,82],[143,-43],[42,67],[11,-97],[-58,-37],[100,-15],[46,66],[90,-28],[-58,58],[45,83],[96,-86],[113,31],[5,37],[51,-18],[55,28],[20,42],[-74,23],[100,42],[78,-58],[54,10],[1,-36],[39,67],[-45,26],[168,65],[99,-8],[-17,36],[117,27],[49,67],[104,-60],[-46,-59],[63,-1],[36,39],[-33,58],[95,21],[-4,33],[94,2],[94,133],[94,0],[-23,68],[75,32],[46,-72],[42,14],[-67,78],[80,53],[92,-26],[4,54],[63,8],[-36,109],[213,-45],[75,-77],[30,88],[165,17],[-35,70],[-65,-5],[2,28],[77,30],[56,-43],[136,35],[103,-15],[-31,47],[62,24],[-59,79],[123,11],[57,44],[-26,46],[90,-9],[-61,88],[67,41],[1,59],[163,-1],[59,-54],[43,11],[-71,79],[-112,15],[18,27],[109,0],[51,-38],[46,36],[114,-62],[66,83],[138,38],[71,-54],[-15,101],[202,-47],[-30,63],[130,50],[11,-63],[71,-7],[-15,78],[110,-35],[29,-82],[147,68],[-13,130],[53,-24],[56,-130],[116,-13],[121,-65],[147,71],[128,-48],[111,26],[31,73],[-52,70],[49,20],[61,-52],[-10,-121],[183,76],[-20,70],[87,49],[43,-20],[-14,-66],[-63,-101],[-103,-60],[116,-80],[127,-8],[283,124],[128,110],[-61,44],[175,-23],[-9,102],[157,10],[10,-57],[175,-74],[9,59],[-108,91],[-3,112],[192,-106],[44,36],[-5,90],[127,-31],[84,41],[-2,-75],[102,-20],[41,29],[-26,88],[108,-52],[82,10],[-147,-62],[-15,-65],[53,-41],[-93,-25],[34,-29],[339,267],[95,16],[141,-51],[116,44],[45,-80],[211,-14],[42,-107],[57,98],[-144,99],[1,46],[113,4],[128,-126],[108,9],[110,73],[-54,88],[56,81],[-150,-15],[83,72],[183,-37],[123,41],[40,-32],[-17,-85],[40,-10],[55,152],[110,1],[27,-44],[-64,-73],[98,-128],[60,36],[33,124],[190,14],[14,-60],[50,0],[17,117],[143,-45],[114,-104],[70,48],[-15,113],[134,33],[108,-9],[-41,-89],[33,-21],[169,47],[49,100],[57,-29],[-19,-100],[47,-44],[114,40],[60,65],[169,-32],[68,50],[-3,80],[-81,70],[32,24],[150,-66],[51,-113],[163,8],[81,-38],[36,147],[143,-21],[121,186],[186,23],[-1,165],[239,66],[-5,39],[-119,59],[-15,59],[102,20],[131,-39],[139,135],[-6,37],[-68,18],[-146,-63],[11,75],[139,28],[52,73],[116,30],[26,62],[113,-20],[228,147],[85,-15],[183,-135],[264,-12],[64,-102],[81,68],[41,132],[-24,141],[73,-2],[82,-106],[0,150],[44,54],[215,-13],[-141,-242],[104,-101],[283,37],[103,64],[68,-3],[7,-69],[-90,-88],[25,-46],[130,53],[-18,198],[132,57],[-80,101],[122,-49],[96,49],[120,-81],[37,-96],[-83,-120],[67,-46],[102,41],[59,169],[72,-4],[88,-79],[84,93],[153,-21],[12,53],[-72,74],[76,45],[442,-21],[81,-42],[91,-132],[130,-66],[86,59],[-5,125],[68,11],[268,-148],[-18,-138],[69,-202],[-239,-101],[36,-54],[163,-62],[-52,-81],[259,85],[76,-6],[21,-65],[-172,-55],[16,-46],[316,-75],[92,101],[107,-319],[85,-22],[68,30],[48,112],[175,27],[4,47],[-146,88],[112,167],[89,10],[190,-69],[61,44],[-14,96],[66,17],[84,-170],[165,14],[108,-52],[167,0],[-66,-56],[-194,6],[-46,-45],[39,-46],[246,-63],[21,-81],[-88,-90],[55,-56],[86,-4],[146,131],[182,12],[139,84],[195,292],[0,295],[-48,97],[-618,400],[-179,214],[-87,105],[-368,144],[-277,233],[-197,204],[-96,280],[-527,184],[-180,256],[-227,133],[-401,74],[-250,-157],[-207,36],[-284,-190],[-419,-104],[-300,70],[-287,191],[-329,-66],[-64,44],[-200,17],[-258,194],[-220,-17],[1855,2033],[3190,3459],[107,174],[-89,189],[42,220],[-125,175],[-71,27],[-58,-20],[-159,-262],[-134,-22],[-211,81],[62,169],[-94,112],[-127,10],[-111,-133],[-162,57],[-112,422],[-113,114],[-178,37],[-158,-107],[-236,-84],[-132,3],[-137,52],[-55,47],[35,79],[333,60],[113,60],[19,68],[-63,52],[-129,-15],[-332,78],[-115,-28],[-246,-154],[-165,-9],[-139,77],[-41,159],[-141,141],[-223,-88],[-103,1],[-104,51],[-165,184],[-232,62],[-149,-9],[-26,-38],[306,-93],[49,-72],[-23,-63],[-355,-91],[-220,44],[-113,114],[104,185],[3,145],[-292,-84],[-106,45],[8,88],[115,122],[-25,54],[-221,79],[-452,60],[-124,154],[-86,39],[-459,12],[-150,294],[-192,88],[-185,-34],[-141,-126],[-131,-24],[-145,63],[-134,158],[-288,19],[-65,-61],[-8,-85],[221,-272],[-17,-79],[-156,16],[-142,118],[-181,36],[-634,-80],[-75,-106],[76,-73],[25,-107],[-60,-31],[-123,53],[-105,-23],[-41,-192],[-59,-39],[-201,51],[-206,181],[-139,-8],[-90,-97],[-63,-6],[14,117],[-46,16],[-275,-76],[-108,-166],[-292,-26],[-292,-133],[-93,102],[80,225],[-256,144],[-163,211],[-166,69],[-191,-47],[-11,-83],[132,-232],[-34,-83],[-76,-17],[-150,104],[-64,207],[13,263],[-539,58],[-478,209],[-219,-40],[-260,-109],[-115,4],[-64,137],[97,227],[-56,97],[-52,11],[-271,-100],[-27,-67],[-152,-63],[-75,-121],[-84,1],[-103,88],[-79,-12],[-180,-231],[-133,-343],[-97,-88],[-318,21],[-77,-25],[-27,-88],[155,-214],[-61,-72],[-86,18],[-22,83],[-77,32],[-274,-67],[-202,-2],[-214,169],[-90,17],[-264,-180],[-124,-13],[-129,-99],[-245,-97],[3,-140],[61,-96],[-74,-105],[-157,23],[18,147],[-83,42],[-361,-101],[-222,96],[-108,-26],[21,-126],[-211,24],[-88,-106],[-189,1],[-368,-88],[-89,37],[0,152],[-231,221],[-154,-125],[-343,95],[-208,9],[-150,-44],[-144,114],[-265,43],[-210,169],[-191,57],[-167,-39],[28,-139],[-165,-100],[-70,-180],[-112,-63],[-77,17],[15,190],[-147,134],[-75,20],[-76,-29],[-54,-157],[-95,-39],[-75,38],[-38,131],[-129,62],[-208,-144],[-187,-37],[-199,-100],[-342,12],[-305,-116],[-29,57],[117,136],[-229,101],[-117,338],[-95,3],[-123,-101],[-85,-3],[-86,65],[-65,147],[-95,21],[-63,-82],[-1,-124],[-64,-45],[-69,7],[-71,79],[26,155],[-122,31],[-140,-73],[-167,-5],[-31,56],[80,121],[-71,77],[-177,80],[-169,193],[-22,204],[304,44],[141,287],[295,124],[51,64],[-12,79],[-165,-12],[-106,44],[-3,85],[101,137],[-225,151],[-9,146],[88,191],[-49,186],[90,120],[-27,80],[-293,58],[-43,74],[70,139],[-17,120],[-168,11],[-145,-33],[-123,219],[-109,100],[-120,-33],[14,-171],[-43,-81],[-105,-26],[-72,22],[99,77],[-45,43],[-353,22],[-112,-63],[41,-164],[-94,-47],[-60,25],[-30,94],[-218,54],[-226,111],[-382,-77],[-32,143],[-186,143],[-320,28],[-207,110],[-74,152],[149,112],[102,219],[303,172],[63,92],[-51,38],[-125,-45],[-85,34],[-4,71],[98,142],[-1,45],[-131,66],[75,67],[-14,66],[-186,19],[-121,77],[-28,153],[-69,51],[-369,42],[32,50],[217,-16],[29,54],[-89,162],[-140,96],[74,203],[-53,24],[-152,-58],[-118,53],[-82,324],[-204,-41],[-267,159],[-217,-75],[-189,34],[-69,62],[-32,189],[-68,-35],[-2,-177],[-160,-113],[-76,8],[-34,98],[-169,-51],[-110,69],[-264,25],[-83,47],[-30,142],[-190,156],[-13,172],[-98,85],[-140,5],[-162,-62],[-110,16],[-38,62],[126,108],[-88,84],[-207,-112],[-93,3],[-89,53],[-92,164],[59,244],[-60,72],[-122,-47],[-62,-171],[-140,-44],[-240,27],[-584,228],[-396,-17],[-384,147],[-32,84],[64,125],[-119,242],[-72,35],[-201,-11],[-56,87],[114,78],[226,-87],[60,10],[8,177],[170,108],[11,48],[-49,17],[-188,-68],[-76,16],[-59,63],[96,142],[-24,51],[-54,16],[-105,-95],[-104,-4],[32,201],[-250,-15],[-223,132],[-24,97],[238,64],[62,123],[-278,164],[94,158],[-44,74],[-168,107],[-3,206],[-50,60],[-48,11],[-141,-99],[-67,93],[44,200],[-30,41],[-315,50],[-89,75],[-168,-78],[-36,24],[48,75],[-23,47],[-228,-28],[-199,251],[-160,56],[-22,100],[-307,80],[46,143],[-274,-54],[-136,-71],[-96,16],[-82,66],[49,105],[-34,53],[-60,6],[-166,-114],[-127,36],[-46,47],[8,245],[-102,110],[-28,107],[-272,267],[-209,68],[-180,-94],[-129,-150],[-154,-31],[-195,13],[-145,183],[-52,5],[-7,-70],[-80,-27],[-80,91],[-159,54],[-87,75],[-25,145],[-348,42],[-175,161],[-131,46],[-171,129],[-470,86],[-338,162],[-281,-54],[-33,-152],[-178,-153],[-105,-38],[-26,-86],[-141,-38],[-89,-108],[-62,32],[-129,-66],[-217,26],[-99,-46],[-54,32],[49,59],[-88,6],[-33,-93],[-301,-38],[-195,89],[-234,11],[-50,60],[-142,58],[-93,-10],[-69,77],[-83,19],[-73,-28],[-75,25],[-18,-35],[-41,31],[-81,-82],[-128,-2],[-73,58],[-90,-13],[-89,69],[-53,-3],[-25,-446],[159,10],[92,67],[80,-38],[163,39],[136,-15],[131,-90],[27,-80],[89,-20],[136,-116],[24,-170],[62,-58],[-18,-99],[73,-10],[13,-108],[153,-128],[11,-64],[129,-99],[84,-134],[110,-19],[89,-84],[14,-104],[248,-69],[59,-91],[191,57],[-12,-42],[70,-12],[51,-63],[-14,-108],[95,8],[48,-71],[61,7],[7,39],[129,-29],[28,-35],[-42,-47],[62,-36],[-5,-50],[112,85],[68,-32],[27,-83],[-48,-44],[131,-21],[24,-108],[-119,-55],[-3,-114],[110,-23],[-54,-10],[5,-37],[72,-53],[-82,-54],[15,-72],[-104,42],[-25,-44],[-68,22],[-11,-64],[-106,-46],[15,-62],[167,-116],[-189,-97],[-9,-82],[57,-127],[120,-56],[-103,-81],[0,-56],[183,-81],[-71,-176],[213,-198],[13,-167],[-97,-112],[36,-106],[320,-157],[-117,-30],[-65,33],[-497,0],[-111,-88],[-92,-7],[-640,345],[-286,-683],[-951,-2358],[-98,-116],[-56,-314],[-48,-18],[-150,83],[-1544,-1346],[-2091,-1819],[-2122,-1149],[-1751,-954],[-770,-423],[-4279,-1003],[-5004,-1162]],[[86308,28170],[42,50],[-19,88],[-123,76],[90,118],[-152,-40],[-69,31],[105,39],[12,64],[2320,-474],[3621,-768],[19,3],[6119,1842]],[[98273,29199],[27,74],[-66,17],[115,32],[-22,51],[-87,-33],[0,98],[-48,14],[59,50],[-36,36],[150,-33],[-104,44],[58,46],[-83,15],[120,11],[-107,41],[56,83],[-38,22],[52,24],[-51,44],[66,69],[-50,26],[95,61],[59,-41],[53,47],[74,0],[-55,78],[86,10],[-66,66],[80,6],[-81,25],[53,75],[61,-16],[5,45],[132,-21],[-82,98],[105,39],[-32,34],[37,113],[119,-6],[67,140],[107,-55],[170,72],[38,62],[100,23],[-94,0],[-21,30],[137,58],[-9,35],[-46,-31],[-19,25],[178,65],[-63,72],[-66,-24],[69,55],[-113,-33],[-20,60],[42,30],[-75,98],[69,126],[60,43],[82,-12],[98,137],[59,-41],[-42,79],[61,81],[134,23],[3,112],[-57,39],[131,7],[29,-61],[44,4],[-39,83],[58,53],[-11,53],[-2492,3205],[-1050,1265],[-985,992],[-854,937],[-1786,1973],[-46,103],[-43,-12],[-36,52],[-74,0],[37,-40],[-112,34],[-91,-22],[-10,-65],[-78,41],[-105,-39],[-198,26],[-73,-52],[-178,-8],[-53,-49],[-25,38],[-130,-56],[-42,61],[-121,-57],[-176,194],[-104,-2],[28,55],[-195,-23],[-47,40],[-86,4],[-162,-43],[-6,30],[-148,21],[-56,-53],[-35,41],[-84,-24],[-40,36],[-180,21],[-121,-26],[-33,-46],[-25,48],[-74,16],[-163,-35],[-9,-47],[-50,7],[27,-27],[-128,-46],[-61,34],[-20,-69],[-78,27],[-35,-79],[-68,14],[-157,-83],[-75,37],[-2,-49],[-207,-41],[-10,-35],[-118,11],[-10,38],[-35,-26],[-59,14],[-16,-49],[-78,-4],[-22,-60],[-65,11],[-196,-130],[-123,-21],[-17,-46],[-141,10],[-181,-76],[-335,38],[-176,-25],[-59,-42],[-89,15],[-203,-77],[-267,18],[-93,44],[-156,-6],[-95,69],[-410,49],[-110,229],[-416,255],[-86,16],[-50,71],[-727,-360],[0,6153]],[[84530,46294],[-203,-60],[48,-80],[-137,-180],[18,-107],[-150,-104],[84,-159],[-71,-32],[-50,-95],[159,-93],[-62,-63],[122,-93],[-68,-38],[25,-21],[-245,-127],[-23,-54],[-113,-30],[-79,-102],[15,-135],[-221,-131],[-129,-30],[-414,-329],[-503,-10],[-109,-49],[-14,-76],[67,-135],[-122,-188],[-241,24],[-378,-27],[-21,-57],[97,-238],[-368,-225],[35,-62],[-189,-197],[-426,-126],[-168,-1],[-68,-34],[-65,35],[-93,-18],[-145,-144],[-140,-2],[-6,-209],[-244,-56],[-194,-310],[115,-85],[-52,-88],[-145,-92],[27,-96],[97,-66],[-72,-86],[47,-162],[-81,-26],[58,-64],[-185,1],[-108,-45],[-101,-187],[-9,-184],[-174,-129],[-107,-8],[-71,-173],[-148,-40],[-141,-180],[-124,14],[-66,-34],[-122,34],[-153,-59],[-470,24],[-107,-55],[-174,-13],[-150,24],[-39,52],[-212,-69],[-729,-66],[-82,-34],[-150,63],[-102,-44],[-64,32],[-94,-61],[-18,-70],[-105,77],[-172,-55],[-230,33],[-227,-33],[-154,-99],[-146,88],[-240,-23],[-362,21],[-18,-35],[-101,-7],[-303,74],[-77,-29],[-191,43],[-150,-56],[-110,6],[-84,-78],[-303,52],[-94,48],[-160,-15],[-23,86],[-197,-78],[-29,-57],[-134,49],[-92,-73],[83,-102],[-23,-71],[-85,-8],[-37,-41],[83,-45],[-35,-59],[29,-131],[35,-27],[242,53],[137,-86],[60,0],[24,-79],[-119,-96],[-251,-36],[-75,-92],[-61,20],[-28,-45],[-48,38],[-102,-85],[86,-9],[75,-60],[-102,-70],[18,-165],[-64,-65],[46,-133],[-55,-17],[-99,-161],[113,-276],[-274,12]],[[77611,5821],[145,-67],[-35,-140],[55,22],[93,-74],[102,2],[64,-36],[34,-153],[64,16],[46,-75],[172,-50],[96,-123],[-18,-117],[194,-329],[11,-102],[-53,-63],[57,-101],[-38,-32],[62,-127],[-5,-113],[123,-174],[0,-107],[-68,-23],[11,-38],[-176,-163],[13,-53],[-86,-86],[104,6],[38,73],[112,-4],[1247,-458],[91,-45],[86,-130],[232,-66]],[[80384,2891],[142,99],[-1,97],[145,165],[16,87],[54,34],[95,-7],[-15,72],[83,41],[124,-23],[67,50],[177,27],[77,-29],[109,139],[82,26],[77,-30],[212,47],[197,-64],[149,1],[37,220],[219,499],[286,170],[442,351],[261,124],[27,83],[123,91],[-132,138],[45,159],[101,154],[222,175],[-80,95],[91,36],[160,234],[260,83],[166,-27],[99,29],[59,-31],[296,111],[138,-20],[40,65],[175,96],[258,317],[43,119],[323,42],[75,166],[-111,177],[-68,29],[8,80],[139,184],[-169,102],[86,87],[-43,38],[59,53],[-1,71],[81,42],[-66,62],[-8,105],[81,119],[252,54],[415,217],[89,-6],[265,99],[153,-44],[186,60],[166,-175],[191,-43],[150,11],[77,-54],[102,1],[-22,-91],[-105,-39],[-112,5],[-90,-83],[-116,7],[-48,-30],[-123,-237],[76,-249],[195,-51],[56,67],[171,18],[118,60],[60,108],[200,-52],[-28,-62],[42,-30]],[[88216,7712],[225,81],[99,145],[89,35],[31,437],[257,126],[5,96],[197,94],[-26,55],[199,9],[115,63],[-10,106],[-104,54],[-13,65],[105,73],[-24,101],[-182,139],[-55,-19],[-145,36],[-48,-57],[-107,-4],[-144,-87],[-394,145],[-87,73],[-134,11],[-82,104],[5,179],[-78,132],[-119,-13],[-223,183],[-572,150],[-96,57],[4,36],[52,79],[-82,15],[6,70],[-72,77],[-61,33],[-125,-24],[-101,30],[38,55],[-203,81],[93,92],[110,5],[135,225],[-65,193],[59,115],[-36,83],[135,110],[29,83],[-59,92],[-208,-33],[-82,49],[-33,120],[-232,157],[-50,154],[57,95],[-45,9],[15,96],[-233,122],[-69,149],[-179,-86],[-133,59],[-195,8],[-23,44],[-59,-19],[-66,37],[-31,67],[-259,174],[-489,-112],[-126,85],[-224,-144],[-285,-98],[-150,-10],[-133,95],[-274,16],[-153,114],[13,50],[-50,40],[-59,-66],[-100,52]],[[39836,40560],[-22,52],[92,-14],[62,41],[-29,-61],[129,-24],[160,49],[144,-16],[24,-134],[152,-93],[163,35],[1,33],[180,9],[178,-35],[-3,-56]],[[53318,40605],[6,61],[168,71],[326,-46],[154,57],[21,181],[-59,62],[73,50],[121,-7],[286,129],[350,0],[97,133],[-85,132],[10,93],[191,-65],[74,25],[8,50],[97,64],[163,44],[-6,57],[49,3],[184,167],[6,76],[221,-55],[-8,60],[56,54],[199,42],[-17,94],[205,25],[86,-50],[260,-7],[25,-52],[128,-37],[39,-80],[36,92],[-68,216],[54,55],[-391,555],[28,81],[-288,192],[-77,11],[-6,41],[-107,14],[-44,100],[-63,32],[69,37],[17,148],[-86,24],[-77,83],[203,230],[-105,39],[-16,51],[49,43],[92,10],[38,72],[44,142],[-40,28],[21,112],[-69,67],[62,106],[-26,68],[-117,53],[-454,65],[-95,282],[-129,25],[-191,-56],[-117,50],[-77,116],[19,85],[-96,118],[-114,3],[-114,136],[51,96],[-97,125],[97,171],[-19,288],[-163,151],[-117,19],[-24,36],[48,471],[-65,171],[-147,87],[-126,245],[-36,158],[40,23],[-61,79],[52,102],[-25,146],[-299,0],[-46,39],[-294,67],[3,147],[-150,210],[81,49],[17,119],[-749,162]],[[16711,73093],[-440,-8],[-179,134],[-146,243],[-105,-14],[-107,91],[-66,-15],[-80,36],[-124,246],[-200,-5],[-344,582],[-161,148],[-52,276],[-194,146],[-44,238],[139,66],[-69,175],[-90,89],[-123,21],[-105,-66],[-137,13],[-61,66],[-83,-1],[-154,88],[-2,78],[-152,155],[-64,-5],[-66,63],[-219,66],[-301,-79],[-187,-128],[-153,12],[-186,-75],[-322,-52],[-91,22],[-98,-10],[-307,214],[-8,92],[-130,116],[-385,152],[-153,-62],[-101,33],[-90,-21],[-103,75],[-125,5],[-134,63],[-42,63],[-160,44],[-45,70],[-112,44],[-56,97],[-337,105],[-35,-39],[-208,10],[-11,60],[-56,-5],[-94,-99],[-82,20],[8,59],[-114,-42],[-61,-205],[-147,-20],[72,-65],[-92,-5],[-26,-42],[-55,31],[-17,-134],[-89,29],[-23,-78],[-100,-23],[-12,-54],[-72,-4],[-32,-47],[-118,35],[-146,-109],[45,-50],[-363,-187],[-205,-69],[-147,18],[-71,-51],[-215,142],[-22,-37],[-233,105],[27,49],[-51,43],[-14,127],[62,76],[-62,35],[64,106],[84,36],[91,165],[259,192],[186,75],[0,67],[454,351],[-28,40],[-128,-89],[-82,34],[-102,-68],[-119,128],[-114,-54],[-48,26],[-165,-88],[-172,123],[-144,-72],[18,481],[-158,-37],[26,66],[-186,179]],[[6634,77914],[-280,-119],[-31,-89],[-49,-3],[-60,-105],[-145,-110],[-19,-85],[-98,-30],[-25,-73],[-79,-19],[-26,-84],[-112,20],[-54,-80],[-92,-36],[-176,13],[-168,79],[-258,149],[-121,-31],[-162,85],[-76,-35],[-31,38],[-172,17],[-93,-34],[-169,25],[-313,-69],[-311,-23],[-348,131],[-75,-51],[-61,52],[-185,-22],[-25,31],[71,102],[-75,116],[-227,85],[-152,-7],[-178,163]],[[2259,77915],[-119,-123],[-339,-124],[-238,-259],[-126,-22],[-223,-196],[-217,-64],[-135,-101],[-159,-35],[-111,-123],[-56,-181],[84,-217],[-24,-259],[-166,-280],[-211,-70],[16,-73],[-52,-40],[57,-91],[136,-181],[48,-224],[-90,-23],[-58,-113],[-124,-355],[-68,-48],[-77,1],[-7,-74],[928,-731],[474,-411],[552,-467],[143,-237],[13,-133],[-41,-40],[-75,-95],[-120,-65],[-170,-14],[-159,79],[-130,-53],[-88,37],[-62,-46],[-29,-43],[65,-67],[22,-121],[-151,-52],[97,-187],[-47,-92],[-124,-55],[-46,-95],[359,-259],[89,-26],[239,-281],[126,37],[107,-27],[665,-411],[503,-377],[376,-493],[216,-422],[39,-210],[-76,-447],[-250,-351],[-240,-148],[-254,-51],[-276,44],[-23,29],[-90,-17],[-79,44],[-82,-11],[-349,241],[-122,-33],[-14,-131],[-96,-122],[-74,-35],[-131,8],[-39,-117],[-165,-137],[37,-107],[-33,-401],[93,-169],[155,-144],[47,-120],[157,-110],[1555,-662],[873,-523],[1236,-399]],[[5171,73560],[42,-92],[-39,92],[-79,-72],[76,72]],[[88216,7712],[217,-114],[16,-71],[172,-72],[-36,-109],[210,-160],[244,-130],[-35,-222],[51,-154],[120,30],[94,-106],[202,-54],[49,-94],[70,15],[38,-70],[299,-128],[246,-102],[197,-13],[180,-114],[431,61],[172,-93],[99,-166],[175,-66],[190,5],[32,52],[128,42],[97,-24],[217,44],[112,-91]],[[92203,5808],[-24,35],[63,53],[63,-13],[97,67],[117,245],[182,54],[72,69],[-33,48],[82,55],[47,86],[355,72],[495,264],[128,-66],[210,52],[257,149],[5,135],[-168,145],[200,171],[265,56],[121,106],[-36,51],[157,195],[349,260],[326,175],[171,202],[89,8],[36,219],[92,164],[265,77],[252,5],[389,141],[92,-6],[374,170],[-166,101],[-32,115],[-88,80],[-34,230],[-153,122],[-79,25],[-37,62],[-83,128],[-54,8],[-82,13],[53,134],[203,97],[85,109],[69,-12],[28,78],[62,66],[95,24],[-61,154],[42,97],[28,142],[-125,128],[-1,67],[-143,102],[-84,-26],[-91,37],[20,97],[99,8],[40,38],[208,-138],[34,56],[163,23],[128,130],[-126,-191],[80,-14],[65,85],[33,-38],[25,44],[19,-24],[66,110],[-14,31],[49,-9],[-36,40],[90,18],[-53,44],[35,82],[35,39],[-46,27],[-188,-3],[-164,-72],[-2,-60],[-44,-18],[-335,122],[-207,-131],[-165,-15],[59,-63],[-18,-45],[-138,36],[-290,-96],[-265,-29],[-119,-22],[-223,-22],[-52,34],[-90,-48],[70,-14],[-67,-62],[-93,-6],[-2,-78],[-189,72],[-61,73],[17,83],[-332,18],[-256,40],[-288,212],[-14,52],[76,2],[57,44],[-37,58],[-124,-55],[-161,63],[-75,-9],[-206,-118],[-100,21],[-159,-55],[-128,72],[-38,83],[23,59],[-45,46],[47,16],[45,-93],[103,79],[-107,91],[126,62],[-18,45],[141,44],[-19,28],[54,-9],[6,100],[100,20],[-27,20],[70,51],[-39,92],[68,-11],[63,46],[-129,47],[163,-41],[23,-148],[-167,-185],[185,118],[49,249],[-163,168],[-29,89],[-67,47],[-220,-12],[-525,169],[-471,32],[-489,2],[-104,109],[-26,125],[-5,-91],[136,-163],[311,6],[26,-49],[48,45],[105,4],[325,-10],[269,-51],[245,-81],[327,-178],[-111,-3],[-21,76],[-137,-58],[-18,82],[-147,58],[-8,36],[-43,-20],[-106,55],[-64,-30],[-96,34],[-323,-81],[-90,37],[-104,-25],[-83,59],[-171,30],[1,25],[-75,-13],[-156,97],[-131,173],[-95,6],[-98,25],[-83,71],[-38,-97],[-19,50],[-109,51],[-15,-64],[-35,22],[27,28],[-75,45],[-81,213],[108,125],[-121,84],[-123,55],[-70,133],[-183,-21],[-110,-115],[-10,-154],[-52,-43],[20,-127],[92,-6],[15,47],[52,5],[11,-51],[64,15],[30,-33],[-60,-27],[27,-26],[60,-1],[8,76],[91,-59],[-47,-40],[79,-2],[-24,-41],[61,29],[59,-20],[38,-134],[-40,-55],[-40,30],[-162,-5],[-57,62],[-169,-1],[8,-68],[-81,76],[6,-129],[-63,29],[-60,-18],[-58,83],[-125,70],[11,68],[-69,46],[-226,15],[-15,34],[-236,63],[-92,61],[-247,-73],[-62,57],[-96,15],[-26,115],[234,58],[-131,162],[-90,-21],[-93,106],[-53,28],[-6,79],[95,66],[-81,107],[123,166],[151,29],[201,-101],[74,22],[2,52],[66,19],[-59,4],[38,4],[-75,48],[51,-6],[-45,75],[37,-22],[32,31],[82,-61],[-19,26],[87,36],[3,59],[102,45],[6,77],[38,-10],[31,45],[26,31],[-46,35],[-92,-33],[2,60],[53,-7],[52,91],[-77,48],[-8,-38],[-39,5],[67,67],[-45,19],[121,23],[-97,45],[-93,-29],[-32,52],[286,-46],[111,-156],[246,-136],[133,-116],[-50,-124],[50,-129],[402,-215],[324,-24],[60,27],[-456,273],[39,41],[175,-82],[117,2],[-78,129],[-76,28],[-14,-45],[-80,-8],[-96,48],[-70,107],[48,51],[-68,32],[60,32],[-22,36],[-241,166],[-59,85],[-88,18],[-31,124],[-248,215],[19,92],[-28,-87],[-199,217],[39,86],[-147,111],[25,48],[-82,70],[116,74],[-37,12],[10,113],[37,-77],[-13,46],[44,2],[-45,-64],[27,-36],[15,54],[73,20],[-53,24],[114,-6],[14,64],[226,-23],[18,-94],[105,85],[166,-33],[125,67],[116,16],[73,-30],[68,33],[-125,37],[-154,-39],[-19,27],[-4,-32],[-79,20],[-56,25],[78,33],[-66,47],[48,-51],[-84,-35],[42,-38],[-217,-76],[-18,57],[-1,-25],[-47,29],[49,24],[-55,32],[-72,-12],[-22,37],[97,-4],[25,-38],[87,33],[35,-39],[39,13],[-90,35],[35,22],[-42,-18],[-18,30],[-143,17],[-3,58],[-43,-20],[-46,50],[43,42],[-55,25],[214,-32],[-173,54],[21,22],[117,-34],[86,61],[16,-68],[23,24],[64,-24],[-9,59],[101,-10],[22,39],[-43,17],[67,-12],[14,37],[145,-153],[-15,77],[-81,58],[123,44],[-10,-74],[176,-62],[101,-114],[59,4],[6,69],[107,-10],[61,31],[-53,27],[61,79],[207,-72],[15,-61],[184,-13],[-77,62],[53,16],[-97,97],[-96,27],[21,-28],[-131,-6],[48,45],[-114,-4],[18,62],[-45,29],[-54,-16],[75,45],[77,-41],[35,87],[35,-26],[22,38],[81,-26],[70,59],[178,-26],[26,-32],[-47,-60],[94,64],[176,-155],[-111,12],[45,-56],[183,-36],[-29,-54],[84,-94],[-163,83],[188,-179],[-6,-35],[-76,16],[84,-52],[-35,-52],[87,-2],[-48,40],[56,10],[262,-156],[82,60],[82,-2],[-39,62],[52,18],[34,-59],[53,-5],[19,-91],[101,-19],[102,55],[91,-31],[-125,-64],[153,-112],[118,14],[-16,-47],[179,-77],[129,-137],[158,-55],[37,-80],[-48,-75],[76,-79],[118,8],[17,33],[-136,62],[-7,46],[146,-18],[132,-6],[144,63],[168,-66],[32,-70],[-40,-32],[71,-51],[-100,-16],[10,82],[-85,-18],[37,34],[-73,78],[18,-52],[-121,-58],[2,-36],[125,-41],[121,-30],[13,-44],[202,-45],[80,65],[98,114],[-35,69],[101,34],[-88,73],[170,197],[289,-177],[100,48],[67,102],[-138,83],[-82,287],[92,18],[260,292],[71,-38],[93,50],[12,109],[121,87],[13,97],[190,-41],[118,75],[140,-21],[-97,72],[0,68],[-175,100],[-168,195],[-128,79],[6,35],[-306,144],[-52,68],[-61,-11],[3,52],[-151,14],[-23,-41],[-22,70],[-71,-30],[37,34],[-94,39],[-10,73],[-52,-3],[18,49],[-110,115],[36,34],[-46,42],[-71,-8],[-70,200],[-295,237],[8,131],[-39,33],[85,36],[78,228],[-102,168],[24,275],[404,196],[250,-21],[244,55],[90,75],[29,37],[-82,111],[-152,103],[20,41],[-50,45],[37,47],[85,86],[118,30],[20,144],[-44,104],[75,147],[333,-47],[231,56],[51,273],[-84,44],[283,78],[35,110],[129,11],[123,226],[163,10],[86,73],[173,24],[29,98],[153,14],[11,71],[146,90],[-235,328],[79,130],[120,50],[87,91],[-77,113],[60,55],[97,-5],[-6,54],[57,29],[1070,24],[-36,57],[-118,45],[-78,187],[79,53],[98,-5],[3,49],[-126,36],[-172,149],[-33,132],[-69,16],[37,105],[-107,71],[21,28],[-148,34],[-70,71],[-145,6],[-79,119],[-61,-4],[-196,157],[123,152],[-56,2],[-98,99],[2,193],[77,69],[172,19],[78,214],[142,63],[46,75],[-263,77],[-63,53],[-124,-32],[-157,48],[14,52],[95,-28],[46,123],[-262,120],[-143,-4],[-76,126],[-101,32],[-51,91],[-98,38],[32,149],[129,79],[88,25],[21,-74],[63,17],[37,-37],[193,29],[-7,70],[51,25],[-116,59],[143,68],[114,3],[1,53],[156,-16],[-44,79],[97,116],[-29,94],[109,91],[-41,68],[44,-37],[104,64],[22,-43],[38,70],[-59,13],[73,29],[27,47],[-36,24],[51,14],[-74,27],[89,48],[-22,32],[54,-4],[-36,74],[78,-25],[-77,72],[-1,60],[57,-52],[-14,63],[87,-1],[-66,120],[99,49],[-74,15],[80,47],[-7,48],[-49,6],[67,10],[-42,51],[74,1],[-10,39],[91,30],[-52,29],[66,17],[-94,35],[87,59],[-86,22],[153,94],[-71,68],[91,32],[-31,40],[49,23],[-57,61],[101,9],[-81,13],[51,32],[-52,29],[112,51],[-37,55],[-60,9],[30,70],[-71,-15],[11,68],[52,-24],[20,34],[-157,160],[87,-12],[-19,35],[53,39],[-111,11],[101,95],[-93,9],[17,79],[-48,-32],[-33,23],[94,92],[-56,34],[110,-1],[-57,12],[52,84],[-73,77],[117,118],[-69,68],[102,-3],[-13,85],[-119,9],[107,81],[-142,-14],[-28,29],[61,23],[-38,28]],[[88163,14287],[96,-63],[-89,-30],[-152,-8],[-125,-82],[-112,-18],[-41,60],[65,2],[-66,35],[-13,75],[16,145],[62,75],[47,-21],[-54,-61],[90,-64],[301,77],[-17,-54],[-90,18],[127,-62],[-45,-24]],[[88696,17293],[-240,89],[-13,108],[198,10],[39,50],[309,142],[114,-41],[-40,-45],[97,-99],[6,-71],[54,-3],[-54,72],[78,3],[-36,-27],[241,-103],[-54,155],[65,171],[17,-70],[80,-27],[13,-147],[154,-116],[46,126],[148,14],[25,-98],[134,-157],[185,-54],[-3,-6],[-63,3],[-56,-64],[-67,39],[-101,-39],[-20,46],[-44,-70],[-109,162],[31,-60],[-56,-33],[-130,85],[134,-145],[-199,86],[-140,-11],[-177,58],[-393,15],[-173,52]],[[90731,13413],[21,89],[-67,-54],[46,-35]],[[91785,13425],[-83,-21],[51,18],[-13,-78],[-86,-49],[43,-16],[140,60],[165,-38],[-217,124]],[[97908,11563],[-2,-930],[822,304],[0,154],[-820,472]],[[91688,14753],[-164,-75],[80,-95],[118,22],[74,74],[-108,74]],[[91863,14193],[-93,-13],[108,-240],[55,41],[-6,122],[-64,90]],[[97746,11561],[-115,40],[66,-100],[66,33],[-17,27]],[[80384,2891],[267,-120],[73,-135],[296,-28],[50,-38],[181,-25],[161,43],[389,-184],[131,-17],[61,-85],[80,14],[15,-60],[109,-19],[-20,-63],[132,-60],[46,-69],[55,-93],[-41,-87],[588,-170],[12,-53],[93,-10],[310,-146],[56,-74],[185,-87],[4,-57],[97,-27],[69,-79],[229,-129],[591,-215],[215,-85],[758,-310],[825,-423],[180,135],[217,73],[312,26],[707,-77],[375,20],[781,271],[556,-8],[155,41],[471,333],[367,200],[325,277],[478,691],[42,241],[-233,195],[-149,250],[-34,546],[-172,101],[4,314],[199,219],[1031,-75],[899,464],[656,387],[-1,215],[8,498],[-851,442],[-521,29]],[[6634,77914],[115,31],[-8,97],[-48,26],[70,37],[24,71],[133,22],[-41,72],[87,11],[-22,32],[53,22],[-39,49],[127,41],[45,-38],[206,88],[168,-51],[99,41],[92,-69],[112,14],[118,-104],[202,-33],[282,98],[63,107],[143,93],[-33,31],[43,45],[143,-45],[285,171],[127,18],[54,51],[139,1],[105,101],[-3,35],[-46,-11],[-202,111],[6,60],[51,22],[-92,148],[21,138],[-124,53],[-71,95],[-59,-1],[6,147],[70,-14],[-43,42],[63,12],[-35,40],[36,-9],[1,42],[-146,210],[88,98],[19,132],[-11,99],[-75,19],[-9,43],[71,106],[-190,41],[-50,92],[51,18],[15,65],[41,36],[-45,62],[37,36],[-72,51],[37,30],[-50,42],[16,54],[-104,1],[-35,68],[-99,19],[46,47],[-8,86],[153,87],[-37,68],[-247,108],[-261,15],[-226,156],[45,-114],[-109,-202],[-357,-251],[-183,-35],[128,-13],[-329,-100],[-27,35],[75,25],[-12,30],[-119,-12],[47,35],[-28,11],[-98,-26],[332,47],[-219,-6],[-270,-101],[24,31],[-172,-19],[69,-14],[-153,39],[-26,-25],[22,28],[89,-15],[-88,24],[-51,-36],[-1,24],[-459,-582],[-196,-158],[-192,-14],[-170,-137],[-239,-25],[-88,-54],[-125,-15],[-340,-171],[-213,-41],[-265,-163],[-327,-487],[-23,-187],[-82,-56],[-964,-421],[-68,-97],[-111,-44],[-179,-291],[-255,-245]],[[84530,46294],[-67,112],[-6,180],[117,103],[137,-10],[34,94],[69,43],[144,-64],[108,59],[73,71],[-23,84],[54,27],[-19,60],[78,106],[-46,10],[-91,182],[-82,64],[-107,4],[-143,145],[-107,182],[81,50],[23,44],[-49,21],[44,59],[-111,63],[4,44],[80,39],[13,-100],[87,19],[82,-52],[85,7],[-8,61],[-101,36],[40,74],[-52,42],[225,-26],[24,43],[-66,26],[25,60],[104,-8],[-3,66],[75,-11],[65,69],[63,-64],[14,45],[-137,108],[-28,84],[65,14],[23,-43],[70,18],[-53,85],[123,37],[-6,87],[-109,1],[-122,-74],[-6,51],[-93,-51],[-63,57],[-25,-43],[-76,0],[-20,31],[-71,-20],[4,-35],[-31,22],[-117,-59],[-53,24],[-4,-91],[-120,10],[-35,-102],[-58,30],[-68,-53],[-30,-117],[-52,30],[-84,-23],[13,-66],[-93,-74],[-23,36],[-108,-82],[-55,10],[-124,-74],[-98,-5],[-88,-52],[25,-37],[-55,-38],[-67,62],[-98,-8],[-69,-129],[18,-110],[-84,19],[17,-34],[-161,-40],[-57,-132],[-294,-44],[-44,18],[-16,-72],[-114,6],[-125,-52],[-92,-126],[-61,-7],[-71,-78],[-7,-58],[-205,-149],[-227,-4],[-68,-60],[-18,23],[-229,-252],[-12,-121],[-452,8],[-58,-49],[-144,-16],[-200,-140],[-296,-20],[-248,-183],[-60,-151],[-84,-15],[-25,-114],[-99,-26],[-34,-102],[-87,-25],[-258,37],[-7,-74],[-246,-51],[-46,22],[-56,-57],[-112,4],[-240,135],[-67,-55],[9,-45],[-78,8],[-118,-90],[-6354,2],[25,78],[145,34],[70,71],[-3,34],[-92,35],[49,62],[-146,62],[71,120],[115,18],[22,93],[95,75],[-97,15],[-48,201],[-67,27],[89,180],[-280,105],[-220,-3],[-130,91],[-76,6],[-37,56],[-137,-1],[66,93],[-34,118],[107,293],[-118,92],[60,139],[-124,-25],[-156,97],[42,345],[-139,36],[-91,-63],[-52,6],[-131,123],[-57,4],[16,74],[-130,68],[-46,-12],[-41,39],[-53,-30],[-93,15],[-166,83],[-150,-47],[-113,48],[-109,-70],[-365,51],[-37,-30],[-83,7],[-27,-36],[-178,132],[-95,-18],[-22,24],[-34,-36],[-52,69],[-75,-23],[4,45],[-56,-22],[-213,59],[-71,-24],[-62,61],[-122,1],[-93,-54],[-100,77],[-73,-10],[-44,34],[-99,-32],[-30,56],[-40,-25],[-60,20],[-37,98],[-3819,4],[-25,31],[136,48],[-44,55],[24,129],[95,45],[58,-30],[166,35],[2,95],[113,33],[19,67],[140,6],[97,50],[-47,179],[102,33],[165,189],[86,41],[206,-42],[101,79],[113,-11],[48,147],[-70,2],[-110,94],[112,21],[64,74],[107,-8],[183,76],[0,28],[69,0],[-15,54],[108,70],[51,148],[-77,125],[52,91],[-26,112],[-131,114],[175,149],[-214,21],[-250,347],[-90,-5],[-65,39],[-140,-27],[-172,57],[-96,237],[-71,11],[19,99],[-143,32],[-128,93],[-21,191],[-157,97],[-48,93],[37,57],[-247,223],[-294,58],[-402,-14],[-81,104],[-151,38],[-120,176],[-93,1],[-59,114],[-135,-55],[-36,23],[-25,80],[71,378],[51,54],[-24,268],[-314,7],[-36,49],[-94,-35],[-147,212],[-118,-18],[-155,50],[-347,225],[-276,63],[-12,69],[-165,73],[129,140],[-89,133],[89,142],[-289,138],[-193,25],[127,94],[-138,146],[-54,177],[88,196],[-330,388],[75,127],[-176,152],[-228,-36],[-108,89],[5,70],[-80,47],[-68,-5],[-45,118],[-167,-61],[-30,72],[-137,29],[60,96],[-114,24],[-138,88],[56,76],[78,16],[-83,143],[34,31],[25,-56],[109,-1],[71,-43],[115,35],[137,-20],[192,90],[4,427],[-81,80],[-179,32],[-25,101],[-152,-13],[-58,63],[-476,107],[-64,-31],[-78,19],[-21,84],[-108,45],[-24,138],[-125,-58],[-91,8],[-81,96],[-187,100],[51,38],[40,162],[-175,38],[-373,176],[-159,16],[-35,148]]],"bbox":[-81.3282,-18.3509,-68.6531,-0.0388],"transform":{"scale":[0.00012675226752267523,0.0001831228312283123],"translate":[-81.3282,-18.3509]}}